event_id,etime,elat,elon,edep,emag,station_id,phase_type,phase_polarity,phase_time
nc51197782,2008-03-07 16:44:17.600,39.8795,-123.19016666666668,9.19,2.29,NC.KCR..SH,P,-1.0,2008-03-07 16:44:32.320000
nc51197782,2008-03-07 16:44:17.600,39.8795,-123.19016666666668,9.19,2.29,XQ.ME63.01.BH,P,-1.0,2008-03-07 16:44:32.474600
nc51197782,2008-03-07 16:44:17.600,39.8795,-123.19016666666668,9.19,2.29,NC.KSM..SH,P,-1.0,2008-03-07 16:44:32.910000
nc51197782,2008-03-07 16:44:17.600,39.8795,-123.19016666666668,9.19,2.29,BK.WDC..HH,P,-1.0,2008-03-07 16:44:33.770000
nc51197782,2008-03-07 16:44:17.600,39.8795,-123.19016666666668,9.19,2.29,NC.GHL..EH,P,-1.0,2008-03-07 16:44:34.070000
nc51197782,2008-03-07 16:44:17.600,39.8795,-123.19016666666668,9.19,2.29,XQ.ME32.01.BH,P,-1.0,2008-03-07 16:44:35.162600
nc51197782,2008-03-07 16:44:17.600,39.8795,-123.19016666666668,9.19,2.29,BK.HOPS..HH,P,-1.0,2008-03-07 16:44:35.231200
nc71103341,2008-03-07 19:42:26.110,39.9465,-123.3365,9.2,0.93,NC.KBN..SH,P,-1.0,2008-03-07 19:42:30.030000
nc71103341,2008-03-07 19:42:26.110,39.9465,-123.3365,9.2,0.93,NC.KIP..SH,P,1.0,2008-03-07 19:42:30.500000
nc71103341,2008-03-07 19:42:26.110,39.9465,-123.3365,9.2,0.93,NC.KBS..SH,P,1.0,2008-03-07 19:42:31.160000
nc71103341,2008-03-07 19:42:26.110,39.9465,-123.3365,9.2,0.93,XQ.ME38.01.BH,P,-1.0,2008-03-07 19:42:31.305000
nc71103341,2008-03-07 19:42:26.110,39.9465,-123.3365,9.2,0.93,NC.KKP..SH,P,-1.0,2008-03-07 19:42:32.040000
nc71103341,2008-03-07 19:42:26.110,39.9465,-123.3365,9.2,0.93,XQ.ME08.01.BH,P,-1.0,2008-03-07 19:42:32.949900
nc71103341,2008-03-07 19:42:26.110,39.9465,-123.3365,9.2,0.93,XQ.ME43.01.BH,P,-1.0,2008-03-07 19:42:34.970100
nc71103341,2008-03-07 19:42:26.110,39.9465,-123.3365,9.2,0.93,NC.KRK..SH,P,-1.0,2008-03-07 19:42:35.090000
nc71103341,2008-03-07 19:42:26.110,39.9465,-123.3365,9.2,0.93,XQ.ME37.01.BH,P,-1.0,2008-03-07 19:42:35.488100
nc71104386,2008-03-13 08:06:26.160,40.82383333333333,-123.85333333333334,14.41,2.0,BK.JCC..HH,P,1.0,2008-03-13 08:06:30.870000
nc71104386,2008-03-13 08:06:26.160,40.82383333333333,-123.85333333333334,14.41,2.0,XQ.ME31.01.BH,P,1.0,2008-03-13 08:06:31.130000
nc71104386,2008-03-13 08:06:26.160,40.82383333333333,-123.85333333333334,14.41,2.0,NC.KHMB..HH,P,-1.0,2008-03-13 08:06:31.340000
nc71104386,2008-03-13 08:06:26.160,40.82383333333333,-123.85333333333334,14.41,2.0,XQ.ME30.01.BH,P,1.0,2008-03-13 08:06:32.180000
nc71104386,2008-03-13 08:06:26.160,40.82383333333333,-123.85333333333334,14.41,2.0,XQ.ME32.01.BH,P,1.0,2008-03-13 08:06:32.556700
nc71104386,2008-03-13 08:06:26.160,40.82383333333333,-123.85333333333334,14.41,2.0,XQ.ME33.01.BH,P,-1.0,2008-03-13 08:06:34.210000
nc71104386,2008-03-13 08:06:26.160,40.82383333333333,-123.85333333333334,14.41,2.0,NC.KRP..HH,P,-1.0,2008-03-13 08:06:34.270000
nc71104386,2008-03-13 08:06:26.160,40.82383333333333,-123.85333333333334,14.41,2.0,NC.KCR..SH,P,-1.0,2008-03-13 08:06:34.830000
nc71104386,2008-03-13 08:06:26.160,40.82383333333333,-123.85333333333334,14.41,2.0,XQ.ME35.01.BH,P,-1.0,2008-03-13 08:06:35.410000
nc71104386,2008-03-13 08:06:26.160,40.82383333333333,-123.85333333333334,14.41,2.0,NC.KHBB..HH,P,1.0,2008-03-13 08:06:36.700000
nc71104386,2008-03-13 08:06:26.160,40.82383333333333,-123.85333333333334,14.41,2.0,NC.KOM..SH,P,1.0,2008-03-13 08:06:37.220000
nc71104386,2008-03-13 08:06:26.160,40.82383333333333,-123.85333333333334,14.41,2.0,XQ.ME29.01.BH,P,1.0,2008-03-13 08:06:38.280000
nc71104386,2008-03-13 08:06:26.160,40.82383333333333,-123.85333333333334,14.41,2.0,NC.LGP..SH,P,1.0,2008-03-13 08:06:40.660000
nc71104416,2008-03-13 12:44:31.200,40.12833333333333,-123.856,19.4,1.76,NC.KMR..HH,P,-1.0,2008-03-13 12:44:36.050000
nc71104416,2008-03-13 12:44:31.200,40.12833333333333,-123.856,19.4,1.76,XQ.ME37.01.BH,P,-1.0,2008-03-13 12:44:36.910000
nc71104416,2008-03-13 12:44:31.200,40.12833333333333,-123.856,19.4,1.76,NC.KSM..SH,P,1.0,2008-03-13 12:44:37.200000
nc71104416,2008-03-13 12:44:31.200,40.12833333333333,-123.856,19.4,1.76,XQ.ME35.01.BH,P,-1.0,2008-03-13 12:44:37.370000
nc71104416,2008-03-13 12:44:31.200,40.12833333333333,-123.856,19.4,1.76,XQ.ME36.01.BH,P,1.0,2008-03-13 12:44:37.530000
nc71104416,2008-03-13 12:44:31.200,40.12833333333333,-123.856,19.4,1.76,XQ.ME38.01.BH,P,-1.0,2008-03-13 12:44:38.050000
nc71104416,2008-03-13 12:44:31.200,40.12833333333333,-123.856,19.4,1.76,XQ.ME49.01.BH,P,-1.0,2008-03-13 12:44:38.180000
nc71104416,2008-03-13 12:44:31.200,40.12833333333333,-123.856,19.4,1.76,NC.KKP..SH,P,1.0,2008-03-13 12:44:38.630000
nc71104416,2008-03-13 12:44:31.200,40.12833333333333,-123.856,19.4,1.76,XQ.ME08.01.BH,P,1.0,2008-03-13 12:44:40.480000
nc71104416,2008-03-13 12:44:31.200,40.12833333333333,-123.856,19.4,1.76,NC.KIP..SH,P,-1.0,2008-03-13 12:44:40.508500
nc71104416,2008-03-13 12:44:31.200,40.12833333333333,-123.856,19.4,1.76,NC.KPP..SH,P,1.0,2008-03-13 12:44:40.530300
nc71104416,2008-03-13 12:44:31.200,40.12833333333333,-123.856,19.4,1.76,NC.KCPB..HH,P,1.0,2008-03-13 12:44:41.402900
nc71104416,2008-03-13 12:44:31.200,40.12833333333333,-123.856,19.4,1.76,NC.KCT..HH,P,1.0,2008-03-13 12:44:41.624400
nc71104416,2008-03-13 12:44:31.200,40.12833333333333,-123.856,19.4,1.76,NC.KFP..SH,P,1.0,2008-03-13 12:44:42.480000
nc71104416,2008-03-13 12:44:31.200,40.12833333333333,-123.856,19.4,1.76,NC.KBN..SH,P,1.0,2008-03-13 12:44:42.650000
nc71104416,2008-03-13 12:44:31.200,40.12833333333333,-123.856,19.4,1.76,XQ.ME27.01.BH,P,1.0,2008-03-13 12:44:43.023100
nc71104916,2008-03-16 02:12:31.060,40.29066666666667,-124.3035,8.62,1.89,NC.KJJ..SH,P,1.0,2008-03-16 02:12:33.190000
nc71104916,2008-03-16 02:12:31.060,40.29066666666667,-124.3035,8.62,1.89,XQ.ME36.01.BH,P,-1.0,2008-03-16 02:12:34.260000
nc71104916,2008-03-16 02:12:31.060,40.29066666666667,-124.3035,8.62,1.89,NC.KSM..SH,P,-1.0,2008-03-16 02:12:34.630000
nc71104916,2008-03-16 02:12:31.060,40.29066666666667,-124.3035,8.62,1.89,NC.KCT..HH,P,-1.0,2008-03-16 02:12:35.860000
nc71104916,2008-03-16 02:12:31.060,40.29066666666667,-124.3035,8.62,1.89,NC.KCR..SH,P,-1.0,2008-03-16 02:12:39.810000
nc71104916,2008-03-16 02:12:31.060,40.29066666666667,-124.3035,8.62,1.89,XQ.ME32.01.BH,P,-1.0,2008-03-16 02:12:41.558900
nc71104916,2008-03-16 02:12:31.060,40.29066666666667,-124.3035,8.62,1.89,XQ.ME37.01.BH,P,1.0,2008-03-16 02:12:41.640300
nc71104916,2008-03-16 02:12:31.060,40.29066666666667,-124.3035,8.62,1.89,NC.KCS..SH,P,1.0,2008-03-16 02:12:44.840000
nc71105426,2008-03-20 07:16:20.050,40.747,-123.658,14.18,1.64,XQ.ME30.01.BH,P,-1.0,2008-03-20 07:16:25.390000
nc71105426,2008-03-20 07:16:20.050,40.747,-123.658,14.18,1.64,NC.KHMB..HH,P,-1.0,2008-03-20 07:16:25.930000
nc71105426,2008-03-20 07:16:20.050,40.747,-123.658,14.18,1.64,XQ.ME32.01.BH,P,1.0,2008-03-20 07:16:26.310000
nc71105426,2008-03-20 07:16:20.050,40.747,-123.658,14.18,1.64,NC.KCS..SH,P,1.0,2008-03-20 07:16:26.420000
nc71105426,2008-03-20 07:16:20.050,40.747,-123.658,14.18,1.64,XQ.ME31.01.BH,P,1.0,2008-03-20 07:16:26.440000
nc71105426,2008-03-20 07:16:20.050,40.747,-123.658,14.18,1.64,XQ.ME33.01.BH,P,1.0,2008-03-20 07:16:26.980000
nc71105426,2008-03-20 07:16:20.050,40.747,-123.658,14.18,1.64,NC.KCR..SH,P,1.0,2008-03-20 07:16:27.560000
nc71105426,2008-03-20 07:16:20.050,40.747,-123.658,14.18,1.64,NC.KHBB..HH,P,1.0,2008-03-20 07:16:27.660000
nc71105426,2008-03-20 07:16:20.050,40.747,-123.658,14.18,1.64,XQ.ME35.01.BH,P,1.0,2008-03-20 07:16:27.670000
nc71105426,2008-03-20 07:16:20.050,40.747,-123.658,14.18,1.64,NC.KPP..SH,P,-1.0,2008-03-20 07:16:29.280000
nc71105426,2008-03-20 07:16:20.050,40.747,-123.658,14.18,1.64,XQ.ME27.01.BH,P,-1.0,2008-03-20 07:16:29.361700
nc71105426,2008-03-20 07:16:20.050,40.747,-123.658,14.18,1.64,XQ.ME29.01.BH,P,1.0,2008-03-20 07:16:30.800000
nc71105426,2008-03-20 07:16:20.050,40.747,-123.658,14.18,1.64,NC.LGP..SH,P,1.0,2008-03-20 07:16:32.160000
nc71105426,2008-03-20 07:16:20.050,40.747,-123.658,14.18,1.64,NC.KSM..SH,P,-1.0,2008-03-20 07:16:32.216900
nc71105426,2008-03-20 07:16:20.050,40.747,-123.658,14.18,1.64,NC.KJJ..SH,P,0.0,2008-03-20 07:16:32.265800
nc51198711,2008-03-20 21:10:51.310,40.48466666666667,-123.66366666666669,22.94,1.99,XQ.ME35.01.BH,P,1.0,2008-03-20 21:10:56.090000
nc51198711,2008-03-20 21:10:51.310,40.48466666666667,-123.66366666666669,22.94,1.99,XQ.ME33.01.BH,P,1.0,2008-03-20 21:10:56.196100
nc51198711,2008-03-20 21:10:51.310,40.48466666666667,-123.66366666666669,22.94,1.99,NC.KCR..SH,P,1.0,2008-03-20 21:10:56.390000
nc51198711,2008-03-20 21:10:51.310,40.48466666666667,-123.66366666666669,22.94,1.99,NC.KCS..SH,P,-1.0,2008-03-20 21:10:56.500000
nc51198711,2008-03-20 21:10:51.310,40.48466666666667,-123.66366666666669,22.94,1.99,XQ.ME32.01.BH,P,-1.0,2008-03-20 21:10:57.021200
nc51198711,2008-03-20 21:10:51.310,40.48466666666667,-123.66366666666669,22.94,1.99,XQ.ME37.01.BH,P,1.0,2008-03-20 21:10:57.160000
nc51198711,2008-03-20 21:10:51.310,40.48466666666667,-123.66366666666669,22.94,1.99,NC.KPP..SH,P,-1.0,2008-03-20 21:10:58.360000
nc51198711,2008-03-20 21:10:51.310,40.48466666666667,-123.66366666666669,22.94,1.99,NC.KMR..HH,P,1.0,2008-03-20 21:10:58.390000
nc51198711,2008-03-20 21:10:51.310,40.48466666666667,-123.66366666666669,22.94,1.99,XQ.ME31.01.BH,P,1.0,2008-03-20 21:10:58.714300
nc51198711,2008-03-20 21:10:51.310,40.48466666666667,-123.66366666666669,22.94,1.99,XQ.ME30.01.BH,P,1.0,2008-03-20 21:10:59.050000
nc51198711,2008-03-20 21:10:51.310,40.48466666666667,-123.66366666666669,22.94,1.99,NC.KHBB..HH,P,1.0,2008-03-20 21:10:59.560000
nc51198711,2008-03-20 21:10:51.310,40.48466666666667,-123.66366666666669,22.94,1.99,XQ.ME27.01.BH,P,1.0,2008-03-20 21:10:59.740000
nc51198711,2008-03-20 21:10:51.310,40.48466666666667,-123.66366666666669,22.94,1.99,NC.KKP..SH,P,1.0,2008-03-20 21:10:59.890000
nc51198711,2008-03-20 21:10:51.310,40.48466666666667,-123.66366666666669,22.94,1.99,NC.KHMB..HH,P,1.0,2008-03-20 21:10:59.890000
nc51198711,2008-03-20 21:10:51.310,40.48466666666667,-123.66366666666669,22.94,1.99,XQ.ME08.01.BH,P,1.0,2008-03-20 21:10:59.920000
nc51198711,2008-03-20 21:10:51.310,40.48466666666667,-123.66366666666669,22.94,1.99,XQ.ME38.01.BH,P,1.0,2008-03-20 21:10:59.970000
nc51198711,2008-03-20 21:10:51.310,40.48466666666667,-123.66366666666669,22.94,1.99,XQ.ME36.01.BH,P,1.0,2008-03-20 21:11:00.589600
nc51198711,2008-03-20 21:10:51.310,40.48466666666667,-123.66366666666669,22.94,1.99,NC.KSM..SH,P,1.0,2008-03-20 21:11:01.150000
nc51198711,2008-03-20 21:10:51.310,40.48466666666667,-123.66366666666669,22.94,1.99,NC.KJJ..SH,P,-1.0,2008-03-20 21:11:01.760000
nc51198711,2008-03-20 21:10:51.310,40.48466666666667,-123.66366666666669,22.94,1.99,NC.KBS..SH,P,1.0,2008-03-20 21:11:02.950000
nc51198711,2008-03-20 21:10:51.310,40.48466666666667,-123.66366666666669,22.94,1.99,XQ.ME13.01.BH,P,1.0,2008-03-20 21:11:03.100700
nc51198711,2008-03-20 21:10:51.310,40.48466666666667,-123.66366666666669,22.94,1.99,NC.LBP..SH,P,1.0,2008-03-20 21:11:03.160000
nc51198711,2008-03-20 21:10:51.310,40.48466666666667,-123.66366666666669,22.94,1.99,NC.KIP..SH,P,1.0,2008-03-20 21:11:04.650000
nc51198711,2008-03-20 21:10:51.310,40.48466666666667,-123.66366666666669,22.94,1.99,NC.LGP..SH,P,1.0,2008-03-20 21:11:05.160000
nc71106981,2008-03-29 18:40:01.790,41.43,-123.41333333333333,30.18,2.44,XQ.ME04.01.BH,P,-1.0,2008-03-29 18:40:07.090000
nc71106981,2008-03-29 18:40:01.790,41.43,-123.41333333333333,30.18,2.44,NC.KOM..SH,P,-1.0,2008-03-29 18:40:07.840000
nc71106981,2008-03-29 18:40:01.790,41.43,-123.41333333333333,30.18,2.44,XQ.ME01.01.BH,P,-1.0,2008-03-29 18:40:08.560000
nc71106981,2008-03-29 18:40:01.790,41.43,-123.41333333333333,30.18,2.44,NC.KRMB..HH,P,1.0,2008-03-29 18:40:08.770000
nc71106981,2008-03-29 18:40:01.790,41.43,-123.41333333333333,30.18,2.44,XQ.ME03.01.BH,P,1.0,2008-03-29 18:40:09.220000
nc71106981,2008-03-29 18:40:01.790,41.43,-123.41333333333333,30.18,2.44,XQ.ME29.01.BH,P,1.0,2008-03-29 18:40:10.280000
nc71106981,2008-03-29 18:40:01.790,41.43,-123.41333333333333,30.18,2.44,NC.KSXB..HH,P,1.0,2008-03-29 18:40:10.540000
nc71106981,2008-03-29 18:40:01.790,41.43,-123.41333333333333,30.18,2.44,BK.YBH..HH,P,1.0,2008-03-29 18:40:13.470000
nc71106981,2008-03-29 18:40:01.790,41.43,-123.41333333333333,30.18,2.44,NC.LAM..SH,P,1.0,2008-03-29 18:40:13.780000
nc71106981,2008-03-29 18:40:01.790,41.43,-123.41333333333333,30.18,2.44,XQ.ME09.01.BH,P,1.0,2008-03-29 18:40:14.140000
nc71106981,2008-03-29 18:40:01.790,41.43,-123.41333333333333,30.18,2.44,NC.LBK..SH,P,1.0,2008-03-29 18:40:14.800000
nc71106981,2008-03-29 18:40:01.790,41.43,-123.41333333333333,30.18,2.44,NC.LGP..SH,P,-1.0,2008-03-29 18:40:14.860000
nc71106981,2008-03-29 18:40:01.790,41.43,-123.41333333333333,30.18,2.44,XQ.ME02.01.BH,P,1.0,2008-03-29 18:40:17.478800
nc71106981,2008-03-29 18:40:01.790,41.43,-123.41333333333333,30.18,2.44,XQ.ME10.01.BH,P,1.0,2008-03-29 18:40:17.850000
nc51199341,2008-03-30 02:28:12.960,40.533166666666666,-123.54083333333334,25.92,2.25,NC.KCS..SH,P,-1.0,2008-03-30 02:28:17.870000
nc51199341,2008-03-30 02:28:12.960,40.533166666666666,-123.54083333333334,25.92,2.25,XQ.ME35.01.BH,P,1.0,2008-03-30 02:28:19.080000
nc51199341,2008-03-30 02:28:12.960,40.533166666666666,-123.54083333333334,25.92,2.25,XQ.ME33.01.BH,P,1.0,2008-03-30 02:28:19.140000
nc51199341,2008-03-30 02:28:12.960,40.533166666666666,-123.54083333333334,25.92,2.25,NC.KCR..SH,P,1.0,2008-03-30 02:28:19.440000
nc51199341,2008-03-30 02:28:12.960,40.533166666666666,-123.54083333333334,25.92,2.25,XQ.ME32.01.BH,P,1.0,2008-03-30 02:28:19.590000
nc51199341,2008-03-30 02:28:12.960,40.533166666666666,-123.54083333333334,25.92,2.25,NC.KPP..SH,P,-1.0,2008-03-30 02:28:19.710000
nc51199341,2008-03-30 02:28:12.960,40.533166666666666,-123.54083333333334,25.92,2.25,NC.KHBB..HH,P,1.0,2008-03-30 02:28:19.710000
nc51199341,2008-03-30 02:28:12.960,40.533166666666666,-123.54083333333334,25.92,2.25,XQ.ME37.01.BH,P,1.0,2008-03-30 02:28:19.850000
nc51199341,2008-03-30 02:28:12.960,40.533166666666666,-123.54083333333334,25.92,2.25,XQ.ME30.01.BH,P,1.0,2008-03-30 02:28:19.870000
nc51199341,2008-03-30 02:28:12.960,40.533166666666666,-123.54083333333334,25.92,2.25,XQ.ME27.01.BH,P,1.0,2008-03-30 02:28:20.148600
nc51199341,2008-03-30 02:28:12.960,40.533166666666666,-123.54083333333334,25.92,2.25,XQ.ME31.01.BH,P,1.0,2008-03-30 02:28:20.847900
nc51199341,2008-03-30 02:28:12.960,40.533166666666666,-123.54083333333334,25.92,2.25,NC.KHMB..HH,P,-1.0,2008-03-30 02:28:21.000000
nc51199341,2008-03-30 02:28:12.960,40.533166666666666,-123.54083333333334,25.92,2.25,NC.KMR..HH,P,1.0,2008-03-30 02:28:21.090000
nc51199341,2008-03-30 02:28:12.960,40.533166666666666,-123.54083333333334,25.92,2.25,XQ.ME08.01.BH,P,-1.0,2008-03-30 02:28:21.250000
nc51199341,2008-03-30 02:28:12.960,40.533166666666666,-123.54083333333334,25.92,2.25,NC.KKP..SH,P,1.0,2008-03-30 02:28:21.970000
nc51199341,2008-03-30 02:28:12.960,40.533166666666666,-123.54083333333334,25.92,2.25,XQ.ME38.01.BH,P,1.0,2008-03-30 02:28:22.150000
nc51199341,2008-03-30 02:28:12.960,40.533166666666666,-123.54083333333334,25.92,2.25,XQ.ME13.01.BH,P,1.0,2008-03-30 02:28:23.060000
nc51199341,2008-03-30 02:28:12.960,40.533166666666666,-123.54083333333334,25.92,2.25,XQ.ME36.01.BH,P,1.0,2008-03-30 02:28:23.530000
nc51199341,2008-03-30 02:28:12.960,40.533166666666666,-123.54083333333334,25.92,2.25,NC.LBP..SH,P,1.0,2008-03-30 02:28:23.720000
nc51199341,2008-03-30 02:28:12.960,40.533166666666666,-123.54083333333334,25.92,2.25,NC.KSM..SH,P,1.0,2008-03-30 02:28:24.090000
nc51199341,2008-03-30 02:28:12.960,40.533166666666666,-123.54083333333334,25.92,2.25,NC.LGP..SH,P,1.0,2008-03-30 02:28:25.090000
nc51199341,2008-03-30 02:28:12.960,40.533166666666666,-123.54083333333334,25.92,2.25,XQ.ME29.01.BH,P,1.0,2008-03-30 02:28:25.100900
nc51199341,2008-03-30 02:28:12.960,40.533166666666666,-123.54083333333334,25.92,2.25,NC.KBS..SH,P,1.0,2008-03-30 02:28:25.160000
nc51199341,2008-03-30 02:28:12.960,40.533166666666666,-123.54083333333334,25.92,2.25,XQ.ME49.01.BH,P,1.0,2008-03-30 02:28:25.568900
nc51199341,2008-03-30 02:28:12.960,40.533166666666666,-123.54083333333334,25.92,2.25,NC.KOM..SH,P,-1.0,2008-03-30 02:28:26.040000
nc51199341,2008-03-30 02:28:12.960,40.533166666666666,-123.54083333333334,25.92,2.25,BK.WDC..HH,P,1.0,2008-03-30 02:28:26.480000
nc51199341,2008-03-30 02:28:12.960,40.533166666666666,-123.54083333333334,25.92,2.25,XQ.ME09.01.BH,P,1.0,2008-03-30 02:28:27.380000
nc51199341,2008-03-30 02:28:12.960,40.533166666666666,-123.54083333333334,25.92,2.25,NC.LBK..SH,P,1.0,2008-03-30 02:28:28.080000
nc71107596,2008-04-02 13:31:29.870,40.514,-124.18383333333334,16.25,1.77,NC.KCT..HH,P,1.0,2008-04-02 13:31:34.300000
nc71107596,2008-04-02 13:31:29.870,40.514,-124.18383333333334,16.25,1.77,XQ.ME36.01.BH,P,-1.0,2008-04-02 13:31:36.040000
nc71107596,2008-04-02 13:31:29.870,40.514,-124.18383333333334,16.25,1.77,NC.KJJ..SH,P,-1.0,2008-04-02 13:31:36.260000
nc71107596,2008-04-02 13:31:29.870,40.514,-124.18383333333334,16.25,1.77,XQ.ME32.01.BH,P,1.0,2008-04-02 13:31:36.360000
nc71107596,2008-04-02 13:31:29.870,40.514,-124.18383333333334,16.25,1.77,NC.KCR..SH,P,1.0,2008-04-02 13:31:36.750000
nc71107596,2008-04-02 13:31:29.870,40.514,-124.18383333333334,16.25,1.77,XQ.ME33.01.BH,P,1.0,2008-04-02 13:31:36.850000
nc71107596,2008-04-02 13:31:29.870,40.514,-124.18383333333334,16.25,1.77,NC.KSM..SH,P,-1.0,2008-04-02 13:31:37.000000
nc71107596,2008-04-02 13:31:29.870,40.514,-124.18383333333334,16.25,1.77,BK.JCC..HH,P,-1.0,2008-04-02 13:31:37.050000
nc71107596,2008-04-02 13:31:29.870,40.514,-124.18383333333334,16.25,1.77,XQ.ME35.01.BH,P,1.0,2008-04-02 13:31:37.600000
nc71107596,2008-04-02 13:31:29.870,40.514,-124.18383333333334,16.25,1.77,XQ.ME37.01.BH,P,1.0,2008-04-02 13:31:39.580000
nc71107596,2008-04-02 13:31:29.870,40.514,-124.18383333333334,16.25,1.77,NC.KHMB..HH,P,1.0,2008-04-02 13:31:40.260000
nc71107596,2008-04-02 13:31:29.870,40.514,-124.18383333333334,16.25,1.77,NC.KCS..SH,P,1.0,2008-04-02 13:31:40.650000
nc71107596,2008-04-02 13:31:29.870,40.514,-124.18383333333334,16.25,1.77,XQ.ME30.01.BH,P,1.0,2008-04-02 13:31:40.980000
nc71107596,2008-04-02 13:31:29.870,40.514,-124.18383333333334,16.25,1.77,NC.KPP..SH,P,1.0,2008-04-02 13:31:42.620000
nc71107596,2008-04-02 13:31:29.870,40.514,-124.18383333333334,16.25,1.77,NC.KKP..SH,P,-1.0,2008-04-02 13:31:42.780000
nc71107796,2008-04-03 12:23:15.730,40.494,-123.88416666666669,19.94,1.7,NC.KCR..SH,P,1.0,2008-04-03 12:23:20.040000
nc71107796,2008-04-03 12:23:15.730,40.494,-123.88416666666669,19.94,1.7,XQ.ME32.01.BH,P,-1.0,2008-04-03 12:23:20.320000
nc71107796,2008-04-03 12:23:15.730,40.494,-123.88416666666669,19.94,1.7,XQ.ME35.01.BH,P,1.0,2008-04-03 12:23:20.440000
nc71107796,2008-04-03 12:23:15.730,40.494,-123.88416666666669,19.94,1.7,XQ.ME34.01.BH,P,1.0,2008-04-03 12:23:21.170000
nc71107796,2008-04-03 12:23:15.730,40.494,-123.88416666666669,19.94,1.7,XQ.ME31.01.BH,P,-1.0,2008-04-03 12:23:21.830000
nc71107796,2008-04-03 12:23:15.730,40.494,-123.88416666666669,19.94,1.7,NC.KCS..SH,P,1.0,2008-04-03 12:23:22.880000
nc71107796,2008-04-03 12:23:15.730,40.494,-123.88416666666669,19.94,1.7,XQ.ME36.01.BH,P,-1.0,2008-04-03 12:23:23.113200
nc71107796,2008-04-03 12:23:15.730,40.494,-123.88416666666669,19.94,1.7,NC.KMR..HH,P,-1.0,2008-04-03 12:23:23.120000
nc71107796,2008-04-03 12:23:15.730,40.494,-123.88416666666669,19.94,1.7,BK.JCC..HH,P,-1.0,2008-04-03 12:23:23.230000
nc71107796,2008-04-03 12:23:15.730,40.494,-123.88416666666669,19.94,1.7,NC.KCT..HH,P,1.0,2008-04-03 12:23:23.690000
nc71107796,2008-04-03 12:23:15.730,40.494,-123.88416666666669,19.94,1.7,NC.KSM..SH,P,-1.0,2008-04-03 12:23:23.980000
nc71107796,2008-04-03 12:23:15.730,40.494,-123.88416666666669,19.94,1.7,NC.KJJ..SH,P,-1.0,2008-04-03 12:23:24.440000
nc71107796,2008-04-03 12:23:15.730,40.494,-123.88416666666669,19.94,1.7,XQ.ME30.01.BH,P,-1.0,2008-04-03 12:23:24.513100
nc71107796,2008-04-03 12:23:15.730,40.494,-123.88416666666669,19.94,1.7,NC.KHMB..HH,P,-1.0,2008-04-03 12:23:24.570000
nc71107796,2008-04-03 12:23:15.730,40.494,-123.88416666666669,19.94,1.7,NC.KPP..SH,P,1.0,2008-04-03 12:23:25.110000
