event_id,etime,elat,elon,edep,emag,station_id,phase_type,phase_polarity,phase_time
nc51202870,2008-05-17 21:41:47.010,39.887166666666666,-123.20566666666669,7.8,2.18,NC.KIP..SH,P,1.0,2008-05-17 21:41:51.740000
nc51202870,2008-05-17 21:41:47.010,39.887166666666666,-123.20566666666669,7.8,2.18,NC.KFP..SH,P,1.0,2008-05-17 21:41:53.060000
nc51202870,2008-05-17 21:41:47.010,39.887166666666666,-123.20566666666669,7.8,2.18,XQ.ME38.01.BH,P,1.0,2008-05-17 21:41:53.740000
nc51202870,2008-05-17 21:41:47.010,39.887166666666666,-123.20566666666669,7.8,2.18,XQ.ME43.01.BH,P,1.0,2008-05-17 21:41:53.760000
nc51202870,2008-05-17 21:41:47.010,39.887166666666666,-123.20566666666669,7.8,2.18,NC.KRK..SH,P,-1.0,2008-05-17 21:41:53.780000
nc51202870,2008-05-17 21:41:47.010,39.887166666666666,-123.20566666666669,7.8,2.18,XQ.ME50.01.BH,P,1.0,2008-05-17 21:41:53.784800
nc51202870,2008-05-17 21:41:47.010,39.887166666666666,-123.20566666666669,7.8,2.18,XQ.ME08.01.BH,P,-1.0,2008-05-17 21:41:54.120000
nc51202870,2008-05-17 21:41:47.010,39.887166666666666,-123.20566666666669,7.8,2.18,NC.KKP..SH,P,-1.0,2008-05-17 21:41:54.370000
nc51202870,2008-05-17 21:41:47.010,39.887166666666666,-123.20566666666669,7.8,2.18,NC.KCPB..HH,P,1.0,2008-05-17 21:41:54.420000
nc51202870,2008-05-17 21:41:47.010,39.887166666666666,-123.20566666666669,7.8,2.18,XQ.ME44.01.BH,P,-1.0,2008-05-17 21:41:54.920000
nc51202870,2008-05-17 21:41:47.010,39.887166666666666,-123.20566666666669,7.8,2.18,XQ.ME49.01.BH,P,1.0,2008-05-17 21:41:55.130000
nc51202870,2008-05-17 21:41:47.010,39.887166666666666,-123.20566666666669,7.8,2.18,NC.GRO..EH,P,1.0,2008-05-17 21:41:55.450000
nc51202870,2008-05-17 21:41:47.010,39.887166666666666,-123.20566666666669,7.8,2.18,XQ.ME39.01.BH,P,1.0,2008-05-17 21:41:55.780000
nc51202870,2008-05-17 21:41:47.010,39.887166666666666,-123.20566666666669,7.8,2.18,BK.GASB..HH,P,1.0,2008-05-17 21:41:55.850000
nc51202870,2008-05-17 21:41:47.010,39.887166666666666,-123.20566666666669,7.8,2.18,NC.LVR..SH,P,1.0,2008-05-17 21:41:55.870000
nc51202870,2008-05-17 21:41:47.010,39.887166666666666,-123.20566666666669,7.8,2.18,NC.GHM..EH,P,-1.0,2008-05-17 21:41:56.120000
nc51202870,2008-05-17 21:41:47.010,39.887166666666666,-123.20566666666669,7.8,2.18,NC.LPG..SH,P,1.0,2008-05-17 21:41:56.750000
nc51202870,2008-05-17 21:41:47.010,39.887166666666666,-123.20566666666669,7.8,2.18,NC.KPP..SH,P,-1.0,2008-05-17 21:41:56.820000
nc51202870,2008-05-17 21:41:47.010,39.887166666666666,-123.20566666666669,7.8,2.18,XQ.ME57.01.BH,P,1.0,2008-05-17 21:41:56.830000
nc51202870,2008-05-17 21:41:47.010,39.887166666666666,-123.20566666666669,7.8,2.18,NC.LBP..SH,P,1.0,2008-05-17 21:41:56.990000
nc51202870,2008-05-17 21:41:47.010,39.887166666666666,-123.20566666666669,7.8,2.18,XQ.ME37.01.BH,P,1.0,2008-05-17 21:41:57.870000
nc51202870,2008-05-17 21:41:47.010,39.887166666666666,-123.20566666666669,7.8,2.18,XQ.ME27.01.BH,P,1.0,2008-05-17 21:41:58.034200
nc51202870,2008-05-17 21:41:47.010,39.887166666666666,-123.20566666666669,7.8,2.18,NC.GTC..SH,P,1.0,2008-05-17 21:41:58.300000
nc51202870,2008-05-17 21:41:47.010,39.887166666666666,-123.20566666666669,7.8,2.18,NC.LRB..SH,P,1.0,2008-05-17 21:41:58.890000
nc51202870,2008-05-17 21:41:47.010,39.887166666666666,-123.20566666666669,7.8,2.18,XQ.ME12.01.BH,P,1.0,2008-05-17 21:41:59.480000
nc51202870,2008-05-17 21:41:47.010,39.887166666666666,-123.20566666666669,7.8,2.18,NC.KCS..SH,P,-1.0,2008-05-17 21:42:00.850000
nc51202870,2008-05-17 21:41:47.010,39.887166666666666,-123.20566666666669,7.8,2.18,NC.GCK..EH,P,1.0,2008-05-17 21:42:01.120000
nc51202870,2008-05-17 21:41:47.010,39.887166666666666,-123.20566666666669,7.8,2.18,NC.KCR..SH,P,1.0,2008-05-17 21:42:01.440000
nc51202870,2008-05-17 21:41:47.010,39.887166666666666,-123.20566666666669,7.8,2.18,NC.GTS..EH,P,-1.0,2008-05-17 21:42:01.590000
nc51202870,2008-05-17 21:41:47.010,39.887166666666666,-123.20566666666669,7.8,2.18,XQ.ME28.01.BH,P,1.0,2008-05-17 21:42:01.650000
nc51202870,2008-05-17 21:41:47.010,39.887166666666666,-123.20566666666669,7.8,2.18,NC.GCW..EH,P,-1.0,2008-05-17 21:42:02.005900
nc51202870,2008-05-17 21:41:47.010,39.887166666666666,-123.20566666666669,7.8,2.18,BK.WDC..HH,P,1.0,2008-05-17 21:42:03.120000
nc51202874,2008-05-17 22:11:14.790,39.88916666666667,-123.20816666666668,7.99,1.77,NC.KBN..SH,P,-1.0,2008-05-17 22:11:16.740000
nc51202874,2008-05-17 22:11:14.790,39.88916666666667,-123.20816666666668,7.99,1.77,XQ.ME41.01.BH,P,1.0,2008-05-17 22:11:17.970000
nc51202874,2008-05-17 22:11:14.790,39.88916666666667,-123.20816666666668,7.99,1.77,XQ.ME42.01.BH,P,-1.0,2008-05-17 22:11:18.660000
nc51202874,2008-05-17 22:11:14.790,39.88916666666667,-123.20816666666668,7.99,1.77,NC.KIP..SH,P,1.0,2008-05-17 22:11:19.560000
nc51202874,2008-05-17 22:11:14.790,39.88916666666667,-123.20816666666668,7.99,1.77,NC.KFP..SH,P,-1.0,2008-05-17 22:11:20.870000
nc51202874,2008-05-17 22:11:14.790,39.88916666666667,-123.20816666666668,7.99,1.77,XQ.ME43.01.BH,P,-1.0,2008-05-17 22:11:21.367300
nc51202874,2008-05-17 22:11:14.790,39.88916666666667,-123.20816666666668,7.99,1.77,XQ.ME38.01.BH,P,1.0,2008-05-17 22:11:21.530000
nc51202874,2008-05-17 22:11:14.790,39.88916666666667,-123.20816666666668,7.99,1.77,NC.KRK..SH,P,-1.0,2008-05-17 22:11:21.570000
nc51202874,2008-05-17 22:11:14.790,39.88916666666667,-123.20816666666668,7.99,1.77,XQ.ME08.01.BH,P,-1.0,2008-05-17 22:11:21.930200
nc51202874,2008-05-17 22:11:14.790,39.88916666666667,-123.20816666666668,7.99,1.77,NC.KKP..SH,P,-1.0,2008-05-17 22:11:22.210000
nc51202874,2008-05-17 22:11:14.790,39.88916666666667,-123.20816666666668,7.99,1.77,NC.KCPB..HH,P,1.0,2008-05-17 22:11:22.220000
nc51202874,2008-05-17 22:11:14.790,39.88916666666667,-123.20816666666668,7.99,1.77,XQ.ME44.01.BH,P,-1.0,2008-05-17 22:11:22.731800
nc51202874,2008-05-17 22:11:14.790,39.88916666666667,-123.20816666666668,7.99,1.77,XQ.ME49.01.BH,P,1.0,2008-05-17 22:11:22.930000
nc51202874,2008-05-17 22:11:14.790,39.88916666666667,-123.20816666666668,7.99,1.77,NC.GRO..EH,P,1.0,2008-05-17 22:11:23.270000
nc51202874,2008-05-17 22:11:14.790,39.88916666666667,-123.20816666666668,7.99,1.77,XQ.ME39.01.BH,P,1.0,2008-05-17 22:11:23.560000
nc51202874,2008-05-17 22:11:14.790,39.88916666666667,-123.20816666666668,7.99,1.77,BK.GASB..HH,P,1.0,2008-05-17 22:11:23.640000
nc51202874,2008-05-17 22:11:14.790,39.88916666666667,-123.20816666666668,7.99,1.77,NC.LVR..SH,P,1.0,2008-05-17 22:11:23.660000
nc51202874,2008-05-17 22:11:14.790,39.88916666666667,-123.20816666666668,7.99,1.77,NC.GHM..EH,P,0.0,2008-05-17 22:11:24.030000
nc51202874,2008-05-17 22:11:14.790,39.88916666666667,-123.20816666666668,7.99,1.77,NC.LPG..SH,P,1.0,2008-05-17 22:11:24.560000
nc51202874,2008-05-17 22:11:14.790,39.88916666666667,-123.20816666666668,7.99,1.77,NC.KPP..SH,P,-1.0,2008-05-17 22:11:24.620000
nc51202874,2008-05-17 22:11:14.790,39.88916666666667,-123.20816666666668,7.99,1.77,NC.LBP..SH,P,-1.0,2008-05-17 22:11:24.790000
nc51202874,2008-05-17 22:11:14.790,39.88916666666667,-123.20816666666668,7.99,1.77,NC.KMR..HH,P,1.0,2008-05-17 22:11:25.150000
nc51202874,2008-05-17 22:11:14.790,39.88916666666667,-123.20816666666668,7.99,1.77,XQ.ME37.01.BH,P,1.0,2008-05-17 22:11:25.700000
nc51202874,2008-05-17 22:11:14.790,39.88916666666667,-123.20816666666668,7.99,1.77,NC.GTC..SH,P,-1.0,2008-05-17 22:11:26.060000
nc51202874,2008-05-17 22:11:14.790,39.88916666666667,-123.20816666666668,7.99,1.77,NC.LRB..SH,P,1.0,2008-05-17 22:11:26.680000
nc51202874,2008-05-17 22:11:14.790,39.88916666666667,-123.20816666666668,7.99,1.77,XQ.ME12.01.BH,P,1.0,2008-05-17 22:11:27.280000
nc51202874,2008-05-17 22:11:14.790,39.88916666666667,-123.20816666666668,7.99,1.77,NC.KCS..SH,P,-1.0,2008-05-17 22:11:28.660000
nc71118361,2008-05-18 01:56:01.080,39.8865,-123.2065,7.54,1.43,NC.KBN..SH,P,-1.0,2008-05-18 01:56:02.960000
nc71118361,2008-05-18 01:56:01.080,39.8865,-123.2065,7.54,1.43,XQ.ME41.01.BH,P,1.0,2008-05-18 01:56:04.160000
nc71118361,2008-05-18 01:56:01.080,39.8865,-123.2065,7.54,1.43,NC.KIP..SH,P,1.0,2008-05-18 01:56:05.760000
nc71118361,2008-05-18 01:56:01.080,39.8865,-123.2065,7.54,1.43,NC.KFP..SH,P,1.0,2008-05-18 01:56:07.100000
nc71118361,2008-05-18 01:56:01.080,39.8865,-123.2065,7.54,1.43,NC.KBS..SH,P,1.0,2008-05-18 01:56:07.260000
nc71118361,2008-05-18 01:56:01.080,39.8865,-123.2065,7.54,1.43,XQ.ME43.01.BH,P,1.0,2008-05-18 01:56:07.655200
nc71118361,2008-05-18 01:56:01.080,39.8865,-123.2065,7.54,1.43,XQ.ME38.01.BH,P,1.0,2008-05-18 01:56:07.780000
nc71118361,2008-05-18 01:56:01.080,39.8865,-123.2065,7.54,1.43,NC.KRK..SH,P,1.0,2008-05-18 01:56:07.920000
nc71118361,2008-05-18 01:56:01.080,39.8865,-123.2065,7.54,1.43,XQ.ME08.01.BH,P,1.0,2008-05-18 01:56:08.172500
nc71118361,2008-05-18 01:56:01.080,39.8865,-123.2065,7.54,1.43,NC.KCPB..HH,P,1.0,2008-05-18 01:56:08.444900
nc71118361,2008-05-18 01:56:01.080,39.8865,-123.2065,7.54,1.43,NC.KKP..SH,P,1.0,2008-05-18 01:56:08.500000
nc71118361,2008-05-18 01:56:01.080,39.8865,-123.2065,7.54,1.43,XQ.ME44.01.BH,P,1.0,2008-05-18 01:56:09.070000
nc71118361,2008-05-18 01:56:01.080,39.8865,-123.2065,7.54,1.43,XQ.ME49.01.BH,P,1.0,2008-05-18 01:56:09.150000
nc71118361,2008-05-18 01:56:01.080,39.8865,-123.2065,7.54,1.43,NC.GRO..EH,P,1.0,2008-05-18 01:56:09.510000
nc71118361,2008-05-18 01:56:01.080,39.8865,-123.2065,7.54,1.43,XQ.ME39.01.BH,P,1.0,2008-05-18 01:56:09.798800
nc71118361,2008-05-18 01:56:01.080,39.8865,-123.2065,7.54,1.43,NC.LVR..SH,P,1.0,2008-05-18 01:56:09.930000
nc71118361,2008-05-18 01:56:01.080,39.8865,-123.2065,7.54,1.43,NC.GHM..EH,P,1.0,2008-05-18 01:56:10.230000
nc71118361,2008-05-18 01:56:01.080,39.8865,-123.2065,7.54,1.43,NC.LPG..SH,P,1.0,2008-05-18 01:56:10.830000
nc71118361,2008-05-18 01:56:01.080,39.8865,-123.2065,7.54,1.43,NC.KPP..SH,P,0.0,2008-05-18 01:56:10.850000
nc71118361,2008-05-18 01:56:01.080,39.8865,-123.2065,7.54,1.43,NC.LRB..SH,P,1.0,2008-05-18 01:56:12.930000
nc71118361,2008-05-18 01:56:01.080,39.8865,-123.2065,7.54,1.43,XQ.ME12.01.BH,P,1.0,2008-05-18 01:56:13.550000
nc71118366,2008-05-18 02:20:05.440,40.35183333333333,-123.614,20.24,1.2,XQ.ME37.01.BH,P,-1.0,2008-05-18 02:20:10.030000
nc71118366,2008-05-18 02:20:05.440,40.35183333333333,-123.614,20.24,1.2,NC.KCR..SH,P,1.0,2008-05-18 02:20:10.780000
nc71118366,2008-05-18 02:20:05.440,40.35183333333333,-123.614,20.24,1.2,NC.KMR..HH,P,-1.0,2008-05-18 02:20:10.970700
nc71118366,2008-05-18 02:20:05.440,40.35183333333333,-123.614,20.24,1.2,XQ.ME33.01.BH,P,1.0,2008-05-18 02:20:11.045300
nc71118366,2008-05-18 02:20:05.440,40.35183333333333,-123.614,20.24,1.2,NC.KPP..SH,P,-1.0,2008-05-18 02:20:11.390000
nc71118366,2008-05-18 02:20:05.440,40.35183333333333,-123.614,20.24,1.2,NC.KKP..SH,P,-1.0,2008-05-18 02:20:12.010000
nc71118366,2008-05-18 02:20:05.440,40.35183333333333,-123.614,20.24,1.2,XQ.ME08.01.BH,P,1.0,2008-05-18 02:20:12.285100
nc71118366,2008-05-18 02:20:05.440,40.35183333333333,-123.614,20.24,1.2,XQ.ME32.01.BH,P,1.0,2008-05-18 02:20:12.603500
nc71118366,2008-05-18 02:20:05.440,40.35183333333333,-123.614,20.24,1.2,XQ.ME27.01.BH,P,1.0,2008-05-18 02:20:13.355400
nc71118366,2008-05-18 02:20:05.440,40.35183333333333,-123.614,20.24,1.2,NC.KMPB..HH,P,1.0,2008-05-18 02:20:13.850000
nc71118366,2008-05-18 02:20:05.440,40.35183333333333,-123.614,20.24,1.2,NC.KBS..SH,P,-1.0,2008-05-18 02:20:15.140000
nc71118366,2008-05-18 02:20:05.440,40.35183333333333,-123.614,20.24,1.2,XQ.ME41.01.BH,P,1.0,2008-05-18 02:20:16.282200
nc71118366,2008-05-18 02:20:05.440,40.35183333333333,-123.614,20.24,1.2,NC.LBP..SH,P,1.0,2008-05-18 02:20:16.360000
nc51202893,2008-05-18 05:23:43.260,41.028166666666664,-123.38533333333334,27.8,2.3,XQ.ME29.01.BH,P,-1.0,2008-05-18 05:23:49.510000
nc51202893,2008-05-18 05:23:43.260,41.028166666666664,-123.38533333333334,27.8,2.3,XQ.ME30.01.BH,P,1.0,2008-05-18 05:23:49.640000
nc51202893,2008-05-18 05:23:43.260,41.028166666666664,-123.38533333333334,27.8,2.3,NC.KOM..SH,P,1.0,2008-05-18 05:23:50.000000
nc51202893,2008-05-18 05:23:43.260,41.028166666666664,-123.38533333333334,27.8,2.3,NC.KHMB..HH,P,1.0,2008-05-18 05:23:50.680000
nc51202893,2008-05-18 05:23:43.260,41.028166666666664,-123.38533333333334,27.8,2.3,XQ.ME04.01.BH,P,1.0,2008-05-18 05:23:50.920000
nc51202893,2008-05-18 05:23:43.260,41.028166666666664,-123.38533333333334,27.8,2.3,NC.KHBB..HH,P,-1.0,2008-05-18 05:23:51.790000
nc51202893,2008-05-18 05:23:43.260,41.028166666666664,-123.38533333333334,27.8,2.3,NC.LGP..SH,P,-1.0,2008-05-18 05:23:52.220000
nc51202893,2008-05-18 05:23:43.260,41.028166666666664,-123.38533333333334,27.8,2.3,XQ.ME07.01.BH,P,-1.0,2008-05-18 05:23:52.260000
nc51202893,2008-05-18 05:23:43.260,41.028166666666664,-123.38533333333334,27.8,2.3,XQ.ME13.01.BH,P,-1.0,2008-05-18 05:23:52.480000
nc51202893,2008-05-18 05:23:43.260,41.028166666666664,-123.38533333333334,27.8,2.3,XQ.ME09.01.BH,P,-1.0,2008-05-18 05:23:53.050000
nc51202893,2008-05-18 05:23:43.260,41.028166666666664,-123.38533333333334,27.8,2.3,NC.KRP..HH,P,1.0,2008-05-18 05:23:53.240000
nc51202893,2008-05-18 05:23:43.260,41.028166666666664,-123.38533333333334,27.8,2.3,BK.JCC..HH,P,0.0,2008-05-18 05:23:53.314500
nc51202893,2008-05-18 05:23:43.260,41.028166666666664,-123.38533333333334,27.8,2.3,XQ.ME31.01.BH,P,1.0,2008-05-18 05:23:53.662400
nc51202893,2008-05-18 05:23:43.260,41.028166666666664,-123.38533333333334,27.8,2.3,NC.KCS..SH,P,1.0,2008-05-18 05:23:53.720000
nc51202893,2008-05-18 05:23:43.260,41.028166666666664,-123.38533333333334,27.8,2.3,NC.LBK..SH,P,-1.0,2008-05-18 05:23:53.870000
nc51202893,2008-05-18 05:23:43.260,41.028166666666664,-123.38533333333334,27.8,2.3,XQ.ME27.01.BH,P,1.0,2008-05-18 05:23:54.934200
nc51202893,2008-05-18 05:23:43.260,41.028166666666664,-123.38533333333334,27.8,2.3,NC.KRMB..HH,P,-1.0,2008-05-18 05:23:54.970000
nc51202893,2008-05-18 05:23:43.260,41.028166666666664,-123.38533333333334,27.8,2.3,XQ.ME10.01.BH,P,-1.0,2008-05-18 05:23:56.174800
nc51202893,2008-05-18 05:23:43.260,41.028166666666664,-123.38533333333334,27.8,2.3,XQ.ME01.01.BH,P,1.0,2008-05-18 05:23:56.940000
nc51202893,2008-05-18 05:23:43.260,41.028166666666664,-123.38533333333334,27.8,2.3,BK.WDC..HH,P,1.0,2008-05-18 05:23:57.782200
nc51202893,2008-05-18 05:23:43.260,41.028166666666664,-123.38533333333334,27.8,2.3,XQ.ME08.01.BH,P,1.0,2008-05-18 05:23:57.795300
nc51202893,2008-05-18 05:23:43.260,41.028166666666664,-123.38533333333334,27.8,2.3,NC.LAM..SH,P,-1.0,2008-05-18 05:23:58.100000
nc51202893,2008-05-18 05:23:43.260,41.028166666666664,-123.38533333333334,27.8,2.3,NC.LBP..SH,P,-1.0,2008-05-18 05:23:58.191600
nc51202893,2008-05-18 05:23:43.260,41.028166666666664,-123.38533333333334,27.8,2.3,BK.YBH..HH,P,-1.0,2008-05-18 05:23:58.766900
nc51202893,2008-05-18 05:23:43.260,41.028166666666664,-123.38533333333334,27.8,2.3,XQ.ME31.01.BH,P,1.0,2008-05-18 05:25:18.210000
nc51202893,2008-05-18 05:23:43.260,41.028166666666664,-123.38533333333334,27.8,2.3,XQ.ME32.01.BH,P,1.0,2008-05-18 05:25:19.090000
nc40218174,2008-05-25 19:25:45.070,40.43633333333333,-123.837,5.22,1.81,NC.KCR..SH,P,1.0,2008-05-25 19:25:46.660000
nc40218174,2008-05-25 19:25:45.070,40.43633333333333,-123.837,5.22,1.81,XQ.ME33.01.BH,P,1.0,2008-05-25 19:25:46.820000
nc40218174,2008-05-25 19:25:45.070,40.43633333333333,-123.837,5.22,1.81,XQ.ME35.01.BH,P,1.0,2008-05-25 19:25:47.490000
nc40218174,2008-05-25 19:25:45.070,40.43633333333333,-123.837,5.22,1.81,XQ.ME32.01.BH,P,-1.0,2008-05-25 19:25:48.620000
nc40218174,2008-05-25 19:25:45.070,40.43633333333333,-123.837,5.22,1.81,NC.KMPB..HH,P,-1.0,2008-05-25 19:25:49.950000
nc40218174,2008-05-25 19:25:45.070,40.43633333333333,-123.837,5.22,1.81,NC.KMR..HH,P,-1.0,2008-05-25 19:25:51.120000
nc40218174,2008-05-25 19:25:45.070,40.43633333333333,-123.837,5.22,1.81,NC.KCS..SH,P,-1.0,2008-05-25 19:25:51.420000
nc40218174,2008-05-25 19:25:45.070,40.43633333333333,-123.837,5.22,1.81,XQ.ME31.01.BH,P,-1.0,2008-05-25 19:25:51.443400
nc40218174,2008-05-25 19:25:45.070,40.43633333333333,-123.837,5.22,1.81,XQ.ME36.01.BH,P,-1.0,2008-05-25 19:25:52.160000
nc40218174,2008-05-25 19:25:45.070,40.43633333333333,-123.837,5.22,1.81,XQ.ME39.01.BH,P,-1.0,2008-05-25 19:25:52.164900
nc40218174,2008-05-25 19:25:45.070,40.43633333333333,-123.837,5.22,1.81,NC.KSM..SH,P,-1.0,2008-05-25 19:25:53.330000
nc40218174,2008-05-25 19:25:45.070,40.43633333333333,-123.837,5.22,1.81,NC.KPP..SH,P,-1.0,2008-05-25 19:25:53.830000
nc40218174,2008-05-25 19:25:45.070,40.43633333333333,-123.837,5.22,1.81,NC.KJJ..SH,P,-1.0,2008-05-25 19:25:54.250000
nc40218174,2008-05-25 19:25:45.070,40.43633333333333,-123.837,5.22,1.81,XQ.ME30.01.BH,P,-1.0,2008-05-25 19:25:54.450000
nc40218174,2008-05-25 19:25:45.070,40.43633333333333,-123.837,5.22,1.81,NC.KHMB..HH,P,-1.0,2008-05-25 19:25:54.579900
nc40218174,2008-05-25 19:25:45.070,40.43633333333333,-123.837,5.22,1.81,XQ.ME27.01.BH,P,-1.0,2008-05-25 19:25:56.006800
nc40218174,2008-05-25 19:25:45.070,40.43633333333333,-123.837,5.22,1.81,NC.KRP..HH,P,-1.0,2008-05-25 19:25:59.870000
nc40218174,2008-05-25 19:25:45.070,40.43633333333333,-123.837,5.22,1.81,XQ.ME07.01.BH,P,-1.0,2008-05-25 19:26:00.054500
nc40218174,2008-05-25 19:25:45.070,40.43633333333333,-123.837,5.22,1.81,NC.KOM..SH,P,1.0,2008-05-25 19:26:02.250000
nc40218174,2008-05-25 19:25:45.070,40.43633333333333,-123.837,5.22,1.81,NC.KFP..SH,P,1.0,2008-05-25 19:26:02.580000
nc40218174,2008-05-25 19:25:45.070,40.43633333333333,-123.837,5.22,1.81,XQ.ME33.01.BH,P,1.0,2008-05-25 19:26:27.220000
nc40218174,2008-05-25 19:25:45.070,40.43633333333333,-123.837,5.22,1.81,XQ.ME35.01.BH,P,1.0,2008-05-25 19:26:27.880000
nc40218174,2008-05-25 19:25:45.070,40.43633333333333,-123.837,5.22,1.81,XQ.ME32.01.BH,P,-1.0,2008-05-25 19:26:29.000000
nc40218174,2008-05-25 19:25:45.070,40.43633333333333,-123.837,5.22,1.81,XQ.ME30.01.BH,P,-1.0,2008-05-25 19:26:34.820000
nc40218174,2008-05-25 19:25:45.070,40.43633333333333,-123.837,5.22,1.81,XQ.ME07.01.BH,P,-1.0,2008-05-25 19:26:40.430000
nc40218174,2008-05-25 19:25:45.070,40.43633333333333,-123.837,5.22,1.81,XQ.ME33.01.BH,P,1.0,2008-05-25 19:27:08.120000
nc71120785,2008-05-26 10:38:59.100,40.41883333333333,-123.149,25.34,1.62,XQ.ME27.01.BH,P,1.0,2008-05-26 10:39:04.110000
nc71120785,2008-05-26 10:38:59.100,40.41883333333333,-123.149,25.34,1.62,NC.KPP..SH,P,1.0,2008-05-26 10:39:05.180000
nc71120785,2008-05-26 10:38:59.100,40.41883333333333,-123.149,25.34,1.62,NC.LBP..SH,P,-1.0,2008-05-26 10:39:05.380000
nc71120785,2008-05-26 10:38:59.100,40.41883333333333,-123.149,25.34,1.62,NC.KHBB..HH,P,1.0,2008-05-26 10:39:05.690000
nc71120785,2008-05-26 10:38:59.100,40.41883333333333,-123.149,25.34,1.62,NC.KCS..SH,P,1.0,2008-05-26 10:39:06.500000
nc71120785,2008-05-26 10:38:59.100,40.41883333333333,-123.149,25.34,1.62,XQ.ME39.01.BH,P,-1.0,2008-05-26 10:39:07.648600
nc71120785,2008-05-26 10:38:59.100,40.41883333333333,-123.149,25.34,1.62,XQ.ME37.01.BH,P,-1.0,2008-05-26 10:39:07.690900
nc71120785,2008-05-26 10:38:59.100,40.41883333333333,-123.149,25.34,1.62,BK.WDC..HH,P,-1.0,2008-05-26 10:39:08.770000
nc71120785,2008-05-26 10:38:59.100,40.41883333333333,-123.149,25.34,1.62,XQ.ME30.01.BH,P,1.0,2008-05-26 10:39:09.210000
nc40218352,2008-05-29 02:19:21.940,40.113,-123.09533333333331,38.76,2.31,XQ.ME08.01.BH,P,1.0,2008-05-29 02:19:29.280000
nc40218352,2008-05-29 02:19:21.940,40.113,-123.09533333333331,38.76,2.31,NC.KBN..SH,P,-1.0,2008-05-29 02:19:29.720000
nc40218352,2008-05-29 02:19:21.940,40.113,-123.09533333333331,38.76,2.31,NC.LBP..SH,P,-1.0,2008-05-29 02:19:29.730000
nc40218352,2008-05-29 02:19:21.940,40.113,-123.09533333333331,38.76,2.31,XQ.ME38.01.BH,P,1.0,2008-05-29 02:19:30.270000
nc40218352,2008-05-29 02:19:21.940,40.113,-123.09533333333331,38.76,2.31,NC.LPG..SH,P,1.0,2008-05-29 02:19:30.360000
nc40218352,2008-05-29 02:19:21.940,40.113,-123.09533333333331,38.76,2.31,XQ.ME27.01.BH,P,1.0,2008-05-29 02:19:30.370000
nc40218352,2008-05-29 02:19:21.940,40.113,-123.09533333333331,38.76,2.31,NC.KPP..SH,P,1.0,2008-05-29 02:19:30.510000
nc40218352,2008-05-29 02:19:21.940,40.113,-123.09533333333331,38.76,2.31,NC.KKP..SH,P,1.0,2008-05-29 02:19:30.570000
