event_id,etime,elat,elon,edep,emag,station_id,phase_type,phase_polarity,phase_time
nc40216664,2008-04-30 03:03:06.900,40.83583333333333,-123.49683333333331,27.75,5.4,XQ.ME05.01.BH,P,1.0,2008-04-30 03:03:29.240100
nc40216664,2008-04-30 03:03:06.900,40.83583333333333,-123.49683333333331,27.75,5.4,NC.LBF..SH,P,1.0,2008-04-30 03:03:29.360000
nc40216665,2008-04-30 03:08:05.220,40.84016666666667,-123.47683333333332,24.81,2.24,XQ.ME30.01.BH,P,-1.0,2008-04-30 03:08:09.890000
nc40216665,2008-04-30 03:08:05.220,40.84016666666667,-123.47683333333332,24.81,2.24,NC.KHMB..HH,P,-1.0,2008-04-30 03:08:11.060000
nc40216665,2008-04-30 03:08:05.220,40.84016666666667,-123.47683333333332,24.81,2.24,NC.KHBB..HH,P,1.0,2008-04-30 03:08:11.970000
nc40216665,2008-04-30 03:08:05.220,40.84016666666667,-123.47683333333332,24.81,2.24,NC.KCS..SH,P,1.0,2008-04-30 03:08:12.670000
nc40216665,2008-04-30 03:08:05.220,40.84016666666667,-123.47683333333332,24.81,2.24,XQ.ME29.01.BH,P,-1.0,2008-04-30 03:08:13.440000
nc40216665,2008-04-30 03:08:05.220,40.84016666666667,-123.47683333333332,24.81,2.24,BK.JCC..HH,P,1.0,2008-04-30 03:08:13.740000
nc40216665,2008-04-30 03:08:05.220,40.84016666666667,-123.47683333333332,24.81,2.24,NC.KOM..SH,P,-1.0,2008-04-30 03:08:14.130000
nc40216665,2008-04-30 03:08:05.220,40.84016666666667,-123.47683333333332,24.81,2.24,XQ.ME13.01.BH,P,1.0,2008-04-30 03:08:14.240000
nc40216665,2008-04-30 03:08:05.220,40.84016666666667,-123.47683333333332,24.81,2.24,XQ.ME07.01.BH,P,1.0,2008-04-30 03:08:14.534100
nc40216665,2008-04-30 03:08:05.220,40.84016666666667,-123.47683333333332,24.81,2.24,XQ.ME27.01.BH,P,1.0,2008-04-30 03:08:14.610000
nc40216665,2008-04-30 03:08:05.220,40.84016666666667,-123.47683333333332,24.81,2.24,NC.LGP..SH,P,1.0,2008-04-30 03:08:15.090000
nc40216665,2008-04-30 03:08:05.220,40.84016666666667,-123.47683333333332,24.81,2.24,XQ.ME04.01.BH,P,1.0,2008-04-30 03:08:15.250000
nc40216665,2008-04-30 03:08:05.220,40.84016666666667,-123.47683333333332,24.81,2.24,NC.KRP..HH,P,1.0,2008-04-30 03:08:15.250000
nc40216665,2008-04-30 03:08:05.220,40.84016666666667,-123.47683333333332,24.81,2.24,XQ.ME09.01.BH,P,1.0,2008-04-30 03:08:16.851700
nc40216665,2008-04-30 03:08:05.220,40.84016666666667,-123.47683333333332,24.81,2.24,NC.LBK..SH,P,1.0,2008-04-30 03:08:17.570000
nc40216665,2008-04-30 03:08:05.220,40.84016666666667,-123.47683333333332,24.81,2.24,NC.KRMB..HH,P,1.0,2008-04-30 03:08:18.595600
nc40216665,2008-04-30 03:08:05.220,40.84016666666667,-123.47683333333332,24.81,2.24,BK.WDC..HH,P,1.0,2008-04-30 03:08:19.240000
nc40216665,2008-04-30 03:08:05.220,40.84016666666667,-123.47683333333332,24.81,2.24,XQ.ME30.01.BH,P,-1.0,2008-04-30 03:09:35.160000
nc40216665,2008-04-30 03:08:05.220,40.84016666666667,-123.47683333333332,24.81,2.24,XQ.ME29.01.BH,P,-1.0,2008-04-30 03:09:38.680000
nc40216665,2008-04-30 03:08:05.220,40.84016666666667,-123.47683333333332,24.81,2.24,XQ.ME30.01.BH,P,-1.0,2008-04-30 03:10:03.400000
nc40216667,2008-04-30 03:54:38.410,40.839,-123.5005,26.83,2.34,XQ.ME30.01.BH,P,-1.0,2008-04-30 03:54:43.160000
nc40216667,2008-04-30 03:54:38.410,40.839,-123.5005,26.83,2.34,NC.KHMB..HH,P,-1.0,2008-04-30 03:54:44.270000
nc40216667,2008-04-30 03:54:38.410,40.839,-123.5005,26.83,2.34,NC.KHBB..HH,P,-1.0,2008-04-30 03:54:45.370000
nc40216667,2008-04-30 03:54:38.410,40.839,-123.5005,26.83,2.34,NC.KCS..SH,P,1.0,2008-04-30 03:54:45.930000
nc40216667,2008-04-30 03:54:38.410,40.839,-123.5005,26.83,2.34,XQ.ME31.01.BH,P,1.0,2008-04-30 03:54:46.570000
nc40216667,2008-04-30 03:54:38.410,40.839,-123.5005,26.83,2.34,BK.JCC..HH,P,1.0,2008-04-30 03:54:46.740000
nc40216667,2008-04-30 03:54:38.410,40.839,-123.5005,26.83,2.34,XQ.ME29.01.BH,P,1.0,2008-04-30 03:54:46.820000
nc40216667,2008-04-30 03:54:38.410,40.839,-123.5005,26.83,2.34,XQ.ME32.01.BH,P,1.0,2008-04-30 03:54:46.830000
nc40216667,2008-04-30 03:54:38.410,40.839,-123.5005,26.83,2.34,NC.KOM..SH,P,-1.0,2008-04-30 03:54:47.430000
nc40216667,2008-04-30 03:54:38.410,40.839,-123.5005,26.83,2.34,XQ.ME33.01.BH,P,1.0,2008-04-30 03:54:47.600000
nc40216667,2008-04-30 03:54:38.410,40.839,-123.5005,26.83,2.34,XQ.ME13.01.BH,P,1.0,2008-04-30 03:54:47.640000
nc40216667,2008-04-30 03:54:38.410,40.839,-123.5005,26.83,2.34,XQ.ME07.01.BH,P,1.0,2008-04-30 03:54:47.680000
nc40216667,2008-04-30 03:54:38.410,40.839,-123.5005,26.83,2.34,XQ.ME27.01.BH,P,-1.0,2008-04-30 03:54:47.990000
nc40216667,2008-04-30 03:54:38.410,40.839,-123.5005,26.83,2.34,NC.KCR..SH,P,1.0,2008-04-30 03:54:48.190000
nc40216667,2008-04-30 03:54:38.410,40.839,-123.5005,26.83,2.34,XQ.ME35.01.BH,P,1.0,2008-04-30 03:54:48.242500
nc40216667,2008-04-30 03:54:38.410,40.839,-123.5005,26.83,2.34,NC.KRP..HH,P,-1.0,2008-04-30 03:54:48.386300
nc40216667,2008-04-30 03:54:38.410,40.839,-123.5005,26.83,2.34,XQ.ME04.01.BH,P,1.0,2008-04-30 03:54:48.520000
nc40216667,2008-04-30 03:54:38.410,40.839,-123.5005,26.83,2.34,NC.LGP..SH,P,1.0,2008-04-30 03:54:48.530000
nc40216667,2008-04-30 03:54:38.410,40.839,-123.5005,26.83,2.34,NC.KPP..SH,P,1.0,2008-04-30 03:54:48.810000
nc40216667,2008-04-30 03:54:38.410,40.839,-123.5005,26.83,2.34,XQ.ME37.01.BH,P,1.0,2008-04-30 03:54:49.457700
nc40216667,2008-04-30 03:54:38.410,40.839,-123.5005,26.83,2.34,XQ.ME34.01.BH,P,1.0,2008-04-30 03:54:49.718300
nc40216667,2008-04-30 03:54:38.410,40.839,-123.5005,26.83,2.34,NC.KMPB..HH,P,1.0,2008-04-30 03:54:50.200000
nc40216667,2008-04-30 03:54:38.410,40.839,-123.5005,26.83,2.34,XQ.ME09.01.BH,P,1.0,2008-04-30 03:54:50.250000
nc40216667,2008-04-30 03:54:38.410,40.839,-123.5005,26.83,2.34,NC.LBK..SH,P,1.0,2008-04-30 03:54:50.990000
nc40216667,2008-04-30 03:54:38.410,40.839,-123.5005,26.83,2.34,XQ.ME10.01.BH,P,1.0,2008-04-30 03:54:52.800000
nc40216667,2008-04-30 03:54:38.410,40.839,-123.5005,26.83,2.34,BK.WDC..HH,P,-1.0,2008-04-30 03:54:52.830000
nc40216667,2008-04-30 03:54:38.410,40.839,-123.5005,26.83,2.34,NC.KSM..SH,P,1.0,2008-04-30 03:54:52.847400
nc40216667,2008-04-30 03:54:38.410,40.839,-123.5005,26.83,2.34,NC.KJJ..SH,P,1.0,2008-04-30 03:54:53.030000
nc40216669,2008-04-30 05:08:14.140,40.83833333333333,-123.4975,24.94,1.94,XQ.ME30.01.BH,P,1.0,2008-04-30 05:08:18.750000
nc40216669,2008-04-30 05:08:14.140,40.83833333333333,-123.4975,24.94,1.94,NC.KHMB..HH,P,1.0,2008-04-30 05:08:19.850000
nc40216669,2008-04-30 05:08:14.140,40.83833333333333,-123.4975,24.94,1.94,NC.KHBB..HH,P,1.0,2008-04-30 05:08:21.000000
nc40216669,2008-04-30 05:08:14.140,40.83833333333333,-123.4975,24.94,1.94,NC.KCS..SH,P,-1.0,2008-04-30 05:08:21.550000
nc40216669,2008-04-30 05:08:14.140,40.83833333333333,-123.4975,24.94,1.94,XQ.ME31.01.BH,P,1.0,2008-04-30 05:08:22.290000
nc40216669,2008-04-30 05:08:14.140,40.83833333333333,-123.4975,24.94,1.94,XQ.ME29.01.BH,P,-1.0,2008-04-30 05:08:22.490000
nc40216669,2008-04-30 05:08:14.140,40.83833333333333,-123.4975,24.94,1.94,XQ.ME32.01.BH,P,1.0,2008-04-30 05:08:22.532900
nc40216669,2008-04-30 05:08:14.140,40.83833333333333,-123.4975,24.94,1.94,BK.JCC..HH,P,1.0,2008-04-30 05:08:22.550000
nc40216669,2008-04-30 05:08:14.140,40.83833333333333,-123.4975,24.94,1.94,NC.KOM..SH,P,-1.0,2008-04-30 05:08:23.090000
nc40216669,2008-04-30 05:08:14.140,40.83833333333333,-123.4975,24.94,1.94,XQ.ME13.01.BH,P,1.0,2008-04-30 05:08:23.290000
nc40216669,2008-04-30 05:08:14.140,40.83833333333333,-123.4975,24.94,1.94,XQ.ME33.01.BH,P,1.0,2008-04-30 05:08:23.450000
nc40216669,2008-04-30 05:08:14.140,40.83833333333333,-123.4975,24.94,1.94,XQ.ME07.01.BH,P,1.0,2008-04-30 05:08:23.452600
nc40216669,2008-04-30 05:08:14.140,40.83833333333333,-123.4975,24.94,1.94,NC.KCR..SH,P,1.0,2008-04-30 05:08:23.975900
nc40216669,2008-04-30 05:08:14.140,40.83833333333333,-123.4975,24.94,1.94,XQ.ME04.01.BH,P,1.0,2008-04-30 05:08:24.221200
nc40216669,2008-04-30 05:08:14.140,40.83833333333333,-123.4975,24.94,1.94,NC.LGP..SH,P,1.0,2008-04-30 05:08:24.230000
nc40216669,2008-04-30 05:08:14.140,40.83833333333333,-123.4975,24.94,1.94,NC.KRP..HH,P,1.0,2008-04-30 05:08:24.420600
nc40216669,2008-04-30 05:08:14.140,40.83833333333333,-123.4975,24.94,1.94,NC.KPP..SH,P,-1.0,2008-04-30 05:08:24.490000
nc40216669,2008-04-30 05:08:14.140,40.83833333333333,-123.4975,24.94,1.94,XQ.ME09.01.BH,P,1.0,2008-04-30 05:08:26.000000
nc40216669,2008-04-30 05:08:14.140,40.83833333333333,-123.4975,24.94,1.94,XQ.ME08.01.BH,P,-1.0,2008-04-30 05:08:26.170000
nc40216669,2008-04-30 05:08:14.140,40.83833333333333,-123.4975,24.94,1.94,NC.LBK..SH,P,1.0,2008-04-30 05:08:26.670000
nc40216669,2008-04-30 05:08:14.140,40.83833333333333,-123.4975,24.94,1.94,BK.WDC..HH,P,1.0,2008-04-30 05:08:28.247600
nc40216722,2008-05-01 00:21:53.020,40.842166666666664,-123.48783333333331,25.65,1.99,XQ.ME30.01.BH,P,-1.0,2008-05-01 00:21:57.760000
nc40216722,2008-05-01 00:21:53.020,40.842166666666664,-123.48783333333331,25.65,1.99,NC.KHMB..HH,P,-1.0,2008-05-01 00:21:58.950000
nc40216722,2008-05-01 00:21:53.020,40.842166666666664,-123.48783333333331,25.65,1.99,NC.KHBB..HH,P,1.0,2008-05-01 00:21:59.850000
nc40216722,2008-05-01 00:21:53.020,40.842166666666664,-123.48783333333331,25.65,1.99,NC.KCS..SH,P,1.0,2008-05-01 00:22:00.560000
nc40216722,2008-05-01 00:21:53.020,40.842166666666664,-123.48783333333331,25.65,1.99,XQ.ME29.01.BH,P,0.0,2008-05-01 00:22:01.316500
nc40216722,2008-05-01 00:21:53.020,40.842166666666664,-123.48783333333331,25.65,1.99,XQ.ME31.01.BH,P,1.0,2008-05-01 00:22:01.360000
nc40216722,2008-05-01 00:21:53.020,40.842166666666664,-123.48783333333331,25.65,1.99,BK.JCC..HH,P,1.0,2008-05-01 00:22:01.610000
nc40216722,2008-05-01 00:21:53.020,40.842166666666664,-123.48783333333331,25.65,1.99,XQ.ME32.01.BH,P,-1.0,2008-05-01 00:22:01.747700
nc40216722,2008-05-01 00:21:53.020,40.842166666666664,-123.48783333333331,25.65,1.99,NC.KOM..SH,P,-1.0,2008-05-01 00:22:02.000000
nc40216722,2008-05-01 00:21:53.020,40.842166666666664,-123.48783333333331,25.65,1.99,XQ.ME13.01.BH,P,1.0,2008-05-01 00:22:02.118600
nc40216722,2008-05-01 00:21:53.020,40.842166666666664,-123.48783333333331,25.65,1.99,XQ.ME33.01.BH,P,-1.0,2008-05-01 00:22:02.390800
nc40216722,2008-05-01 00:21:53.020,40.842166666666664,-123.48783333333331,25.65,1.99,XQ.ME07.01.BH,P,1.0,2008-05-01 00:22:02.429600
nc40216722,2008-05-01 00:21:53.020,40.842166666666664,-123.48783333333331,25.65,1.99,XQ.ME27.01.BH,P,1.0,2008-05-01 00:22:02.450000
nc40216722,2008-05-01 00:21:53.020,40.842166666666664,-123.48783333333331,25.65,1.99,NC.LGP..SH,P,1.0,2008-05-01 00:22:02.990000
nc40216722,2008-05-01 00:21:53.020,40.842166666666664,-123.48783333333331,25.65,1.99,NC.KRP..HH,P,1.0,2008-05-01 00:22:03.128200
nc40216722,2008-05-01 00:21:53.020,40.842166666666664,-123.48783333333331,25.65,1.99,XQ.ME04.01.BH,P,1.0,2008-05-01 00:22:03.136900
nc40216722,2008-05-01 00:21:53.020,40.842166666666664,-123.48783333333331,25.65,1.99,NC.KPP..SH,P,-1.0,2008-05-01 00:22:03.380000
nc40216722,2008-05-01 00:21:53.020,40.842166666666664,-123.48783333333331,25.65,1.99,XQ.ME09.01.BH,P,1.0,2008-05-01 00:22:04.710000
nc40216722,2008-05-01 00:21:53.020,40.842166666666664,-123.48783333333331,25.65,1.99,XQ.ME08.01.BH,P,-1.0,2008-05-01 00:22:05.066300
nc40216722,2008-05-01 00:21:53.020,40.842166666666664,-123.48783333333331,25.65,1.99,NC.LBK..SH,P,-1.0,2008-05-01 00:22:05.410000
nc40216722,2008-05-01 00:21:53.020,40.842166666666664,-123.48783333333331,25.65,1.99,NC.KRMB..HH,P,1.0,2008-05-01 00:22:06.474300
nc40216722,2008-05-01 00:21:53.020,40.842166666666664,-123.48783333333331,25.65,1.99,NC.LSF..SH,P,-1.0,2008-05-01 00:22:07.230200
nc40216722,2008-05-01 00:21:53.020,40.842166666666664,-123.48783333333331,25.65,1.99,BK.WDC..HH,P,-1.0,2008-05-01 00:22:07.300000
nc71114860,2008-05-01 13:05:39.310,40.849666666666664,-123.50033333333332,18.85,1.78,NC.KHMB..HH,P,1.0,2008-05-01 13:05:45.185900
nc71114860,2008-05-01 13:05:39.310,40.849666666666664,-123.50033333333332,18.85,1.78,NC.KHBB..HH,P,1.0,2008-05-01 13:05:46.140000
nc71114860,2008-05-01 13:05:39.310,40.849666666666664,-123.50033333333332,18.85,1.78,NC.KCS..SH,P,-1.0,2008-05-01 13:05:46.770000
nc71114860,2008-05-01 13:05:39.310,40.849666666666664,-123.50033333333332,18.85,1.78,XQ.ME31.01.BH,P,1.0,2008-05-01 13:05:47.656100
nc71114860,2008-05-01 13:05:39.310,40.849666666666664,-123.50033333333332,18.85,1.78,BK.JCC..HH,P,1.0,2008-05-01 13:05:47.952800
nc71114860,2008-05-01 13:05:39.310,40.849666666666664,-123.50033333333332,18.85,1.78,NC.KOM..SH,P,-1.0,2008-05-01 13:05:48.400000
nc71114860,2008-05-01 13:05:39.310,40.849666666666664,-123.50033333333332,18.85,1.78,XQ.ME33.01.BH,P,-1.0,2008-05-01 13:05:48.617800
nc71114860,2008-05-01 13:05:39.310,40.849666666666664,-123.50033333333332,18.85,1.78,XQ.ME07.01.BH,P,1.0,2008-05-01 13:05:48.805900
nc71114860,2008-05-01 13:05:39.310,40.849666666666664,-123.50033333333332,18.85,1.78,NC.KCR..SH,P,-1.0,2008-05-01 13:05:49.270000
nc71114860,2008-05-01 13:05:39.310,40.849666666666664,-123.50033333333332,18.85,1.78,NC.LGP..SH,P,1.0,2008-05-01 13:05:49.340000
nc71114860,2008-05-01 13:05:39.310,40.849666666666664,-123.50033333333332,18.85,1.78,NC.KRP..HH,P,1.0,2008-05-01 13:05:49.726600
nc71114860,2008-05-01 13:05:39.310,40.849666666666664,-123.50033333333332,18.85,1.78,XQ.ME09.01.BH,P,1.0,2008-05-01 13:05:51.104200
nc71114860,2008-05-01 13:05:39.310,40.849666666666664,-123.50033333333332,18.85,1.78,NC.LBK..SH,P,-1.0,2008-05-01 13:05:51.920000
nc71115300,2008-05-03 13:05:26.630,40.816833333333335,-124.43116666666668,6.84,1.89,BK.JCC..HH,P,1.0,2008-05-03 13:05:34.745000
nc71115300,2008-05-03 13:05:26.630,40.816833333333335,-124.43116666666668,6.84,1.89,NC.KCT..HH,P,-1.0,2008-05-03 13:05:35.528900
nc71115300,2008-05-03 13:05:26.630,40.816833333333335,-124.43116666666668,6.84,1.89,XQ.ME31.01.BH,P,1.0,2008-05-03 13:05:36.065000
nc71115300,2008-05-03 13:05:26.630,40.816833333333335,-124.43116666666668,6.84,1.89,NC.KRP..HH,P,-1.0,2008-05-03 13:05:36.785000
nc71115300,2008-05-03 13:05:26.630,40.816833333333335,-124.43116666666668,6.84,1.89,XQ.ME07.01.BH,P,-1.0,2008-05-03 13:05:37.935000
nc71115300,2008-05-03 13:05:26.630,40.816833333333335,-124.43116666666668,6.84,1.89,NC.KJJ..SH,P,-1.0,2008-05-03 13:05:38.290000
nc71115300,2008-05-03 13:05:26.630,40.816833333333335,-124.43116666666668,6.84,1.89,NC.KHMB..HH,P,1.0,2008-05-03 13:05:38.525000
nc71115300,2008-05-03 13:05:26.630,40.816833333333335,-124.43116666666668,6.84,1.89,NC.KCR..SH,P,1.0,2008-05-03 13:05:39.470000
nc71115300,2008-05-03 13:05:26.630,40.816833333333335,-124.43116666666668,6.84,1.89,XQ.ME30.01.BH,P,1.0,2008-05-03 13:05:39.915000
nc71115300,2008-05-03 13:05:26.630,40.816833333333335,-124.43116666666668,6.84,1.89,XQ.ME35.01.BH,P,1.0,2008-05-03 13:05:40.225600
nc71115300,2008-05-03 13:05:26.630,40.816833333333335,-124.43116666666668,6.84,1.89,NC.KRMB..HH,P,-1.0,2008-05-03 13:05:41.465000
nc71115300,2008-05-03 13:05:26.630,40.816833333333335,-124.43116666666668,6.84,1.89,NC.KCS..SH,P,1.0,2008-05-03 13:05:41.890000
nc71115300,2008-05-03 13:05:26.630,40.816833333333335,-124.43116666666668,6.84,1.89,XQ.ME04.01.BH,P,-1.0,2008-05-03 13:05:43.135000
nc71115300,2008-05-03 13:05:26.630,40.816833333333335,-124.43116666666668,6.84,1.89,NC.KOM..SH,P,-1.0,2008-05-03 13:05:43.180000
nc71115375,2008-05-03 17:48:52.620,40.83583333333333,-123.504,23.06,1.85,XQ.ME30.01.BH,P,1.0,2008-05-03 17:48:57.280000
nc71115375,2008-05-03 17:48:52.620,40.83583333333333,-123.504,23.06,1.85,NC.KHMB..HH,P,1.0,2008-05-03 17:48:58.390000
nc71115375,2008-05-03 17:48:52.620,40.83583333333333,-123.504,23.06,1.85,NC.KHBB..HH,P,-1.0,2008-05-03 17:48:59.450000
nc71115375,2008-05-03 17:48:52.620,40.83583333333333,-123.504,23.06,1.85,NC.KCS..SH,P,-1.0,2008-05-03 17:49:00.020000
nc71115375,2008-05-03 17:48:52.620,40.83583333333333,-123.504,23.06,1.85,XQ.ME31.01.BH,P,1.0,2008-05-03 17:49:00.815300
nc71115375,2008-05-03 17:48:52.620,40.83583333333333,-123.504,23.06,1.85,NC.KOM..SH,P,-1.0,2008-05-03 17:49:01.640000
nc71115375,2008-05-03 17:48:52.620,40.83583333333333,-123.504,23.06,1.85,XQ.ME07.01.BH,P,1.0,2008-05-03 17:49:02.010000
nc71115375,2008-05-03 17:48:52.620,40.83583333333333,-123.504,23.06,1.85,XQ.ME27.01.BH,P,-1.0,2008-05-03 17:49:02.061000
nc71115375,2008-05-03 17:48:52.620,40.83583333333333,-123.504,23.06,1.85,NC.LGP..SH,P,1.0,2008-05-03 17:49:02.770000
nc71115375,2008-05-03 17:48:52.620,40.83583333333333,-123.504,23.06,1.85,NC.KPP..SH,P,-1.0,2008-05-03 17:49:02.930000
nc71115375,2008-05-03 17:48:52.620,40.83583333333333,-123.504,23.06,1.85,NC.LBK..SH,P,1.0,2008-05-03 17:49:05.350000
nc71116711,2008-05-10 16:34:27.010,40.92366666666667,-123.488,14.26,1.73,XQ.ME30.01.BH,P,-1.0,2008-05-10 16:34:31.870000
nc71116711,2008-05-10 16:34:27.010,40.92366666666667,-123.488,14.26,1.73,NC.KHMB..HH,P,-1.0,2008-05-10 16:34:32.560000
nc71116711,2008-05-10 16:34:27.010,40.92366666666667,-123.488,14.26,1.73,XQ.ME29.01.BH,P,1.0,2008-05-10 16:34:34.789600
nc71116711,2008-05-10 16:34:27.010,40.92366666666667,-123.488,14.26,1.73,NC.KOM..SH,P,1.0,2008-05-10 16:34:34.790000
nc71116711,2008-05-10 16:34:27.010,40.92366666666667,-123.488,14.26,1.73,NC.KHBB..HH,P,1.0,2008-05-10 16:34:34.980000
nc71116711,2008-05-10 16:34:27.010,40.92366666666667,-123.488,14.26,1.73,XQ.ME07.01.BH,P,1.0,2008-05-10 16:34:35.020000
nc71116711,2008-05-10 16:34:27.010,40.92366666666667,-123.488,14.26,1.73,BK.JCC..HH,P,1.0,2008-05-10 16:34:35.120000
nc71116711,2008-05-10 16:34:27.010,40.92366666666667,-123.488,14.26,1.73,XQ.ME31.01.BH,P,1.0,2008-05-10 16:34:35.280000
nc71116711,2008-05-10 16:34:27.010,40.92366666666667,-123.488,14.26,1.73,NC.KCS..SH,P,1.0,2008-05-10 16:34:35.730000
nc71116711,2008-05-10 16:34:27.010,40.92366666666667,-123.488,14.26,1.73,NC.KRP..HH,P,1.0,2008-05-10 16:34:35.844700
nc71116711,2008-05-10 16:34:27.010,40.92366666666667,-123.488,14.26,1.73,NC.LGP..SH,P,1.0,2008-05-10 16:34:37.420000
nc71116711,2008-05-10 16:34:27.010,40.92366666666667,-123.488,14.26,1.73,NC.KRMB..HH,P,1.0,2008-05-10 16:34:38.965800
nc71116711,2008-05-10 16:34:27.010,40.92366666666667,-123.488,14.26,1.73,NC.LBK..SH,P,-1.0,2008-05-10 16:34:39.610000
nc71118291,2008-05-17 18:42:10.640,40.531,-124.71133333333331,6.37,2.38,NC.KCT..HH,P,1.0,2008-05-17 18:42:19.216000
nc71118291,2008-05-17 18:42:10.640,40.531,-124.71133333333331,6.37,2.38,NC.KJJ..SH,P,1.0,2008-05-17 18:42:20.171000
nc71118291,2008-05-17 18:42:10.640,40.531,-124.71133333333331,6.37,2.38,XQ.ME34.01.BH,P,1.0,2008-05-17 18:42:21.218700
nc71118291,2008-05-17 18:42:10.640,40.531,-124.71133333333331,6.37,2.38,NC.KMPB..HH,P,1.0,2008-05-17 18:42:21.370000
nc71118291,2008-05-17 18:42:10.640,40.531,-124.71133333333331,6.37,2.38,XQ.ME36.01.BH,P,1.0,2008-05-17 18:42:21.570000
nc71118291,2008-05-17 18:42:10.640,40.531,-124.71133333333331,6.37,2.38,NC.KSM..SH,P,1.0,2008-05-17 18:42:21.940000
nc71118291,2008-05-17 18:42:10.640,40.531,-124.71133333333331,6.37,2.38,BK.JCC..HH,P,1.0,2008-05-17 18:42:22.900000
nc71118291,2008-05-17 18:42:10.640,40.531,-124.71133333333331,6.37,2.38,XQ.ME31.01.BH,P,1.0,2008-05-17 18:42:23.460000
nc71118291,2008-05-17 18:42:10.640,40.531,-124.71133333333331,6.37,2.38,XQ.ME32.01.BH,P,1.0,2008-05-17 18:42:24.240000
nc71118291,2008-05-17 18:42:10.640,40.531,-124.71133333333331,6.37,2.38,NC.KCR..SH,P,-1.0,2008-05-17 18:42:24.790000
nc71118291,2008-05-17 18:42:10.640,40.531,-124.71133333333331,6.37,2.38,XQ.ME33.01.BH,P,1.0,2008-05-17 18:42:24.827600
nc71118291,2008-05-17 18:42:10.640,40.531,-124.71133333333331,6.37,2.38,NC.KRP..HH,P,-1.0,2008-05-17 18:42:26.350000
nc71118291,2008-05-17 18:42:10.640,40.531,-124.71133333333331,6.37,2.38,NC.KHMB..HH,P,1.0,2008-05-17 18:42:26.750000
nc71118291,2008-05-17 18:42:10.640,40.531,-124.71133333333331,6.37,2.38,XQ.ME07.01.BH,P,-1.0,2008-05-17 18:42:27.321300
nc51202870,2008-05-17 21:41:47.010,39.887166666666666,-123.20566666666669,7.8,2.18,NC.KBN..SH,P,-1.0,2008-05-17 21:41:48.920000
nc51202870,2008-05-17 21:41:47.010,39.887166666666666,-123.20566666666669,7.8,2.18,XQ.ME41.01.BH,P,1.0,2008-05-17 21:41:50.160000
nc51202870,2008-05-17 21:41:47.010,39.887166666666666,-123.20566666666669,7.8,2.18,XQ.ME42.01.BH,P,1.0,2008-05-17 21:41:50.840000
