event_id,etime,elat,elon,edep,emag,station_id,phase_type,phase_polarity,phase_time
nc71100926,2008-02-24 13:00:20.860,40.900333333333336,-123.72166666666666,4.19,3.28,XQ.ME29.01.BH,P,-1.0,2008-02-24 13:00:31.410000
nc71100926,2008-02-24 13:00:20.860,40.900333333333336,-123.72166666666666,4.19,3.28,XQ.ME35.01.BH,P,-1.0,2008-02-24 13:00:31.951200
nc71100926,2008-02-24 13:00:20.860,40.900333333333336,-123.72166666666666,4.19,3.28,XQ.ME34.01.BH,P,-1.0,2008-02-24 13:00:32.400000
nc71100926,2008-02-24 13:00:20.860,40.900333333333336,-123.72166666666666,4.19,3.28,XQ.ME13.01.BH,P,-1.0,2008-02-24 13:00:33.370000
nc71100926,2008-02-24 13:00:20.860,40.900333333333336,-123.72166666666666,4.19,3.28,XQ.ME27.01.BH,P,1.0,2008-02-24 13:00:33.580000
nc71100926,2008-02-24 13:00:20.860,40.900333333333336,-123.72166666666666,4.19,3.28,NC.KRMB..HH,P,-1.0,2008-02-24 13:00:34.140000
nc71100926,2008-02-24 13:00:20.860,40.900333333333336,-123.72166666666666,4.19,3.28,XQ.ME37.01.BH,P,-1.0,2008-02-24 13:00:34.160000
nc71100926,2008-02-24 13:00:20.860,40.900333333333336,-123.72166666666666,4.19,3.28,XQ.ME36.01.BH,P,-1.0,2008-02-24 13:00:35.720000
nc71100926,2008-02-24 13:00:20.860,40.900333333333336,-123.72166666666666,4.19,3.28,XQ.ME39.01.BH,P,-1.0,2008-02-24 13:00:35.798700
nc71100926,2008-02-24 13:00:20.860,40.900333333333336,-123.72166666666666,4.19,3.28,XQ.ME08.01.BH,P,1.0,2008-02-24 13:00:36.100300
nc71100926,2008-02-24 13:00:20.860,40.900333333333336,-123.72166666666666,4.19,3.28,XQ.ME09.01.BH,P,-1.0,2008-02-24 13:00:36.160000
nc71100926,2008-02-24 13:00:20.860,40.900333333333336,-123.72166666666666,4.19,3.28,XQ.ME03.01.BH,P,-1.0,2008-02-24 13:00:36.950000
nc71100926,2008-02-24 13:00:20.860,40.900333333333336,-123.72166666666666,4.19,3.28,XQ.ME38.01.BH,P,-1.0,2008-02-24 13:00:37.800000
nc71100926,2008-02-24 13:00:20.860,40.900333333333336,-123.72166666666666,4.19,3.28,XQ.ME01.01.BH,P,-1.0,2008-02-24 13:00:38.480000
nc71100926,2008-02-24 13:00:20.860,40.900333333333336,-123.72166666666666,4.19,3.28,BK.WDC..HH,P,-1.0,2008-02-24 13:00:38.992000
nc71100926,2008-02-24 13:00:20.860,40.900333333333336,-123.72166666666666,4.19,3.28,XQ.ME10.01.BH,P,-1.0,2008-02-24 13:00:39.004800
nc71100926,2008-02-24 13:00:20.860,40.900333333333336,-123.72166666666666,4.19,3.28,NC.KSXB..HH,P,-1.0,2008-02-24 13:00:39.040000
nc71100926,2008-02-24 13:00:20.860,40.900333333333336,-123.72166666666666,4.19,3.28,PB.B039..EH,P,-1.0,2008-02-24 13:00:41.400000
nc71100926,2008-02-24 13:00:20.860,40.900333333333336,-123.72166666666666,4.19,3.28,BK.YBH..HH,P,-1.0,2008-02-24 13:00:41.820000
nc71101161,2008-02-26 02:27:15.030,40.641333333333336,-124.21466666666667,0.38,1.6,NC.KCT..HH,P,1.0,2008-02-26 02:27:18.440000
nc71101161,2008-02-26 02:27:15.030,40.641333333333336,-124.21466666666667,0.38,1.6,BK.JCC..HH,P,-1.0,2008-02-26 02:27:22.920000
nc71101161,2008-02-26 02:27:15.030,40.641333333333336,-124.21466666666667,0.38,1.6,XQ.ME31.01.BH,P,-1.0,2008-02-26 02:27:23.180000
nc71101161,2008-02-26 02:27:15.030,40.641333333333336,-124.21466666666667,0.38,1.6,NC.KCR..SH,P,1.0,2008-02-26 02:27:23.830000
nc71101161,2008-02-26 02:27:15.030,40.641333333333336,-124.21466666666667,0.38,1.6,XQ.ME37.01.BH,P,0.0,2008-02-26 02:27:26.945100
nc71101161,2008-02-26 02:27:15.030,40.641333333333336,-124.21466666666667,0.38,1.6,XQ.ME30.01.BH,P,-1.0,2008-02-26 02:27:27.536800
nc51197150,2008-02-26 09:11:21.810,40.122166666666665,-123.811,17.0,1.62,XQ.ME39.01.BH,P,1.0,2008-02-26 09:11:27.190000
nc51197150,2008-02-26 09:11:21.810,40.122166666666665,-123.811,17.0,1.62,XQ.ME37.01.BH,P,-1.0,2008-02-26 09:11:27.380000
nc51197150,2008-02-26 09:11:21.810,40.122166666666665,-123.811,17.0,1.62,XQ.ME35.01.BH,P,-1.0,2008-02-26 09:11:28.100000
nc51197150,2008-02-26 09:11:21.810,40.122166666666665,-123.811,17.0,1.62,XQ.ME38.01.BH,P,1.0,2008-02-26 09:11:28.120000
nc51197150,2008-02-26 09:11:21.810,40.122166666666665,-123.811,17.0,1.62,NC.KSM..SH,P,1.0,2008-02-26 09:11:28.310000
nc51197150,2008-02-26 09:11:21.810,40.122166666666665,-123.811,17.0,1.62,XQ.ME49.01.BH,P,-1.0,2008-02-26 09:11:28.360000
nc51197150,2008-02-26 09:11:21.810,40.122166666666665,-123.811,17.0,1.62,XQ.ME36.01.BH,P,1.0,2008-02-26 09:11:28.670000
nc51197150,2008-02-26 09:11:21.810,40.122166666666665,-123.811,17.0,1.62,NC.KCR..SH,P,-1.0,2008-02-26 09:11:28.710000
nc51197150,2008-02-26 09:11:21.810,40.122166666666665,-123.811,17.0,1.62,NC.KKP..SH,P,1.0,2008-02-26 09:11:28.730000
nc51197150,2008-02-26 09:11:21.810,40.122166666666665,-123.811,17.0,1.62,XQ.ME33.01.BH,P,1.0,2008-02-26 09:11:29.680000
nc51197150,2008-02-26 09:11:21.810,40.122166666666665,-123.811,17.0,1.62,NC.KJJ..SH,P,1.0,2008-02-26 09:11:29.990000
nc51197150,2008-02-26 09:11:21.810,40.122166666666665,-123.811,17.0,1.62,NC.KIP..SH,P,-1.0,2008-02-26 09:11:30.543400
nc51197150,2008-02-26 09:11:21.810,40.122166666666665,-123.811,17.0,1.62,XQ.ME08.01.BH,P,1.0,2008-02-26 09:11:30.660000
nc51197150,2008-02-26 09:11:21.810,40.122166666666665,-123.811,17.0,1.62,NC.KPP..SH,P,1.0,2008-02-26 09:11:30.850000
nc51197150,2008-02-26 09:11:21.810,40.122166666666665,-123.811,17.0,1.62,NC.KCPB..HH,P,-1.0,2008-02-26 09:11:31.345300
nc51197150,2008-02-26 09:11:21.810,40.122166666666665,-123.811,17.0,1.62,NC.KCS..SH,P,-1.0,2008-02-26 09:11:31.810000
nc51197150,2008-02-26 09:11:21.810,40.122166666666665,-123.811,17.0,1.62,NC.KFP..SH,P,1.0,2008-02-26 09:11:32.560000
nc51197150,2008-02-26 09:11:21.810,40.122166666666665,-123.811,17.0,1.62,NC.KCT..HH,P,1.0,2008-02-26 09:11:32.820000
nc51197150,2008-02-26 09:11:21.810,40.122166666666665,-123.811,17.0,1.62,XQ.ME31.01.BH,P,-1.0,2008-02-26 09:11:33.294300
nc51197150,2008-02-26 09:11:21.810,40.122166666666665,-123.811,17.0,1.62,XQ.ME27.01.BH,P,1.0,2008-02-26 09:11:33.420000
nc51197150,2008-02-26 09:11:21.810,40.122166666666665,-123.811,17.0,1.62,NC.KHBB..HH,P,1.0,2008-02-26 09:11:34.823500
nc51197189,2008-02-27 00:10:42.820,41.09883333333333,-123.22383333333332,35.5,2.75,XQ.ME29.01.BH,P,1.0,2008-02-27 00:10:48.710000
nc51197189,2008-02-27 00:10:42.820,41.09883333333333,-123.22383333333332,35.5,2.75,NC.KOM..SH,P,1.0,2008-02-27 00:10:50.440000
nc51197189,2008-02-27 00:10:42.820,41.09883333333333,-123.22383333333332,35.5,2.75,NC.LGP..SH,P,-1.0,2008-02-27 00:10:51.140000
nc51197189,2008-02-27 00:10:42.820,41.09883333333333,-123.22383333333332,35.5,2.75,XQ.ME04.01.BH,P,1.0,2008-02-27 00:10:51.320000
nc51197189,2008-02-27 00:10:42.820,41.09883333333333,-123.22383333333332,35.5,2.75,XQ.ME09.01.BH,P,-1.0,2008-02-27 00:10:51.440000
nc51197189,2008-02-27 00:10:42.820,41.09883333333333,-123.22383333333332,35.5,2.75,XQ.ME30.01.BH,P,1.0,2008-02-27 00:10:51.450000
nc51197189,2008-02-27 00:10:42.820,41.09883333333333,-123.22383333333332,35.5,2.75,XQ.ME13.01.BH,P,-1.0,2008-02-27 00:10:51.910000
nc51197189,2008-02-27 00:10:42.820,41.09883333333333,-123.22383333333332,35.5,2.75,NC.LBK..SH,P,-1.0,2008-02-27 00:10:52.170000
nc51197189,2008-02-27 00:10:42.820,41.09883333333333,-123.22383333333332,35.5,2.75,NC.KHBB..HH,P,-1.0,2008-02-27 00:10:52.690000
nc51197189,2008-02-27 00:10:42.820,41.09883333333333,-123.22383333333332,35.5,2.75,NC.KHMB..HH,P,1.0,2008-02-27 00:10:52.840000
nc51197189,2008-02-27 00:10:42.820,41.09883333333333,-123.22383333333332,35.5,2.75,XQ.ME10.01.BH,P,-1.0,2008-02-27 00:10:54.500000
nc51197189,2008-02-27 00:10:42.820,41.09883333333333,-123.22383333333332,35.5,2.75,NC.KCS..SH,P,1.0,2008-02-27 00:10:55.280000
nc51197189,2008-02-27 00:10:42.820,41.09883333333333,-123.22383333333332,35.5,2.75,BK.JCC..HH,P,-1.0,2008-02-27 00:10:55.351900
nc51197189,2008-02-27 00:10:42.820,41.09883333333333,-123.22383333333332,35.5,2.75,NC.KRMB..HH,P,-1.0,2008-02-27 00:10:55.630000
nc51197189,2008-02-27 00:10:42.820,41.09883333333333,-123.22383333333332,35.5,2.75,XQ.ME27.01.BH,P,1.0,2008-02-27 00:10:55.710600
nc51197189,2008-02-27 00:10:42.820,41.09883333333333,-123.22383333333332,35.5,2.75,NC.LAM..SH,P,-1.0,2008-02-27 00:10:55.960000
nc51197189,2008-02-27 00:10:42.820,41.09883333333333,-123.22383333333332,35.5,2.75,NC.LSF..SH,P,1.0,2008-02-27 00:10:55.980000
nc51197189,2008-02-27 00:10:42.820,41.09883333333333,-123.22383333333332,35.5,2.75,XQ.ME01.01.BH,P,-1.0,2008-02-27 00:10:56.386100
nc51197189,2008-02-27 00:10:42.820,41.09883333333333,-123.22383333333332,35.5,2.75,BK.WDC..HH,P,-1.0,2008-02-27 00:10:56.630000
nc51197189,2008-02-27 00:10:42.820,41.09883333333333,-123.22383333333332,35.5,2.75,NC.LSR..SH,P,-1.0,2008-02-27 00:10:56.710000
nc51197189,2008-02-27 00:10:42.820,41.09883333333333,-123.22383333333332,35.5,2.75,XQ.ME03.01.BH,P,-1.0,2008-02-27 00:10:57.064000
nc51197189,2008-02-27 00:10:42.820,41.09883333333333,-123.22383333333332,35.5,2.75,NC.KTR..SH,P,-1.0,2008-02-27 00:10:58.390000
nc51197189,2008-02-27 00:10:42.820,41.09883333333333,-123.22383333333332,35.5,2.75,NC.LBO..SH,P,-1.0,2008-02-27 00:10:58.960000
nc51197189,2008-02-27 00:10:42.820,41.09883333333333,-123.22383333333332,35.5,2.75,NC.LMP..SH,P,1.0,2008-02-27 00:10:59.910000
nc71101376,2008-02-27 04:11:45.550,40.3065,-124.26416666666668,14.67,1.46,NC.KJJ..SH,P,1.0,2008-02-27 04:11:48.790000
nc71101376,2008-02-27 04:11:45.550,40.3065,-124.26416666666668,14.67,1.46,XQ.ME36.01.BH,P,-1.0,2008-02-27 04:11:49.309300
nc71101376,2008-02-27 04:11:45.550,40.3065,-124.26416666666668,14.67,1.46,NC.KSM..SH,P,-1.0,2008-02-27 04:11:49.490000
nc71101376,2008-02-27 04:11:45.550,40.3065,-124.26416666666668,14.67,1.46,NC.KCT..HH,P,-1.0,2008-02-27 04:11:50.490000
nc71101376,2008-02-27 04:11:45.550,40.3065,-124.26416666666668,14.67,1.46,XQ.ME34.01.BH,P,1.0,2008-02-27 04:11:51.080800
nc71101376,2008-02-27 04:11:45.550,40.3065,-124.26416666666668,14.67,1.46,NC.KCR..SH,P,1.0,2008-02-27 04:11:53.550000
nc71101376,2008-02-27 04:11:45.550,40.3065,-124.26416666666668,14.67,1.46,XQ.ME35.01.BH,P,1.0,2008-02-27 04:11:53.980000
nc71101376,2008-02-27 04:11:45.550,40.3065,-124.26416666666668,14.67,1.46,XQ.ME33.01.BH,P,1.0,2008-02-27 04:11:53.988700
nc71101376,2008-02-27 04:11:45.550,40.3065,-124.26416666666668,14.67,1.46,XQ.ME32.01.BH,P,1.0,2008-02-27 04:11:54.220000
nc71101376,2008-02-27 04:11:45.550,40.3065,-124.26416666666668,14.67,1.46,XQ.ME31.01.BH,P,1.0,2008-02-27 04:11:54.700000
nc71101376,2008-02-27 04:11:45.550,40.3065,-124.26416666666668,14.67,1.46,XQ.ME37.01.BH,P,1.0,2008-02-27 04:11:55.193500
nc71101376,2008-02-27 04:11:45.550,40.3065,-124.26416666666668,14.67,1.46,XQ.ME39.01.BH,P,-1.0,2008-02-27 04:11:55.855100
nc71101376,2008-02-27 04:11:45.550,40.3065,-124.26416666666668,14.67,1.46,NC.KBS..SH,P,-1.0,2008-02-27 04:11:56.720000
nc71101376,2008-02-27 04:11:45.550,40.3065,-124.26416666666668,14.67,1.46,NC.KKP..SH,P,-1.0,2008-02-27 04:11:57.600500
nc71101376,2008-02-27 04:11:45.550,40.3065,-124.26416666666668,14.67,1.46,NC.KHMB..HH,P,1.0,2008-02-27 04:11:58.099400
nc71101441,2008-02-27 13:45:57.410,40.03966666666667,-123.76066666666668,10.95,1.52,XQ.ME49.01.BH,P,-1.0,2008-02-27 13:46:02.407300
nc71101441,2008-02-27 13:45:57.410,40.03966666666667,-123.76066666666668,10.95,1.52,XQ.ME39.01.BH,P,-1.0,2008-02-27 13:46:02.680000
nc71101441,2008-02-27 13:45:57.410,40.03966666666667,-123.76066666666668,10.95,1.52,XQ.ME37.01.BH,P,-1.0,2008-02-27 13:46:03.720000
nc71101441,2008-02-27 13:45:57.410,40.03966666666667,-123.76066666666668,10.95,1.52,NC.KKP..SH,P,-1.0,2008-02-27 13:46:03.790000
nc71101441,2008-02-27 13:45:57.410,40.03966666666667,-123.76066666666668,10.95,1.52,NC.KIP..SH,P,1.0,2008-02-27 13:46:04.700000
nc71101441,2008-02-27 13:45:57.410,40.03966666666667,-123.76066666666668,10.95,1.52,NC.KSM..SH,P,1.0,2008-02-27 13:46:04.950000
nc71101441,2008-02-27 13:45:57.410,40.03966666666667,-123.76066666666668,10.95,1.52,XQ.ME35.01.BH,P,-1.0,2008-02-27 13:46:05.139900
nc71101441,2008-02-27 13:45:57.410,40.03966666666667,-123.76066666666668,10.95,1.52,XQ.ME36.01.BH,P,1.0,2008-02-27 13:46:05.710400
nc71101441,2008-02-27 13:45:57.410,40.03966666666667,-123.76066666666668,10.95,1.52,NC.KCPB..HH,P,1.0,2008-02-27 13:46:05.940000
nc71101441,2008-02-27 13:45:57.410,40.03966666666667,-123.76066666666668,10.95,1.52,NC.KCR..SH,P,-1.0,2008-02-27 13:46:05.993800
nc71101441,2008-02-27 13:45:57.410,40.03966666666667,-123.76066666666668,10.95,1.52,XQ.ME08.01.BH,P,1.0,2008-02-27 13:46:06.440000
nc71101441,2008-02-27 13:45:57.410,40.03966666666667,-123.76066666666668,10.95,1.52,NC.KPP..SH,P,-1.0,2008-02-27 13:46:07.497500
nc71101441,2008-02-27 13:45:57.410,40.03966666666667,-123.76066666666668,10.95,1.52,NC.KFP..SH,P,-1.0,2008-02-27 13:46:07.500000
nc71101441,2008-02-27 13:45:57.410,40.03966666666667,-123.76066666666668,10.95,1.52,XQ.ME50.01.BH,P,-1.0,2008-02-27 13:46:07.571100
nc71101441,2008-02-27 13:45:57.410,40.03966666666667,-123.76066666666668,10.95,1.52,NC.KBN..SH,P,1.0,2008-02-27 13:46:07.630000
nc71101441,2008-02-27 13:45:57.410,40.03966666666667,-123.76066666666668,10.95,1.52,NC.KCS..SH,P,1.0,2008-02-27 13:46:09.000000
nc71101441,2008-02-27 13:45:57.410,40.03966666666667,-123.76066666666668,10.95,1.52,XQ.ME27.01.BH,P,1.0,2008-02-27 13:46:10.016500
nc71102321,2008-03-03 04:27:05.530,40.3325,-124.62266666666666,3.69,2.01,NC.KJJ..SH,P,-1.0,2008-03-03 04:27:13.045000
nc71102321,2008-03-03 04:27:05.530,40.3325,-124.62266666666666,3.69,2.01,NC.KCT..HH,P,1.0,2008-03-03 04:27:13.835000
nc71102321,2008-03-03 04:27:05.530,40.3325,-124.62266666666666,3.69,2.01,NC.KSM..SH,P,-1.0,2008-03-03 04:27:14.525000
nc71102321,2008-03-03 04:27:05.530,40.3325,-124.62266666666666,3.69,2.01,XQ.ME36.01.BH,P,-1.0,2008-03-03 04:27:14.525000
nc71102321,2008-03-03 04:27:05.530,40.3325,-124.62266666666666,3.69,2.01,XQ.ME34.01.BH,P,1.0,2008-03-03 04:27:15.845000
nc71102321,2008-03-03 04:27:05.530,40.3325,-124.62266666666666,3.69,2.01,XQ.ME31.01.BH,P,1.0,2008-03-03 04:27:18.998900
nc71102321,2008-03-03 04:27:05.530,40.3325,-124.62266666666666,3.69,2.01,XQ.ME32.01.BH,P,1.0,2008-03-03 04:27:19.115000
nc71102321,2008-03-03 04:27:05.530,40.3325,-124.62266666666666,3.69,2.01,XQ.ME33.01.BH,P,1.0,2008-03-03 04:27:19.219100
nc71102321,2008-03-03 04:27:05.530,40.3325,-124.62266666666666,3.69,2.01,XQ.ME39.01.BH,P,-1.0,2008-03-03 04:27:21.635900
nc51197677,2008-03-06 01:16:55.590,40.51916666666666,-123.663,19.37,1.63,XQ.ME35.01.BH,P,1.0,2008-03-06 01:17:00.370000
nc51197677,2008-03-06 01:16:55.590,40.51916666666666,-123.663,19.37,1.63,NC.KCS..SH,P,1.0,2008-03-06 01:17:00.510000
nc51197677,2008-03-06 01:16:55.590,40.51916666666666,-123.663,19.37,1.63,NC.KCR..SH,P,1.0,2008-03-06 01:17:00.520000
nc51197677,2008-03-06 01:16:55.590,40.51916666666666,-123.663,19.37,1.63,XQ.ME32.01.BH,P,1.0,2008-03-06 01:17:00.940000
nc51197677,2008-03-06 01:16:55.590,40.51916666666666,-123.663,19.37,1.63,XQ.ME37.01.BH,P,-1.0,2008-03-06 01:17:01.580000
nc51197677,2008-03-06 01:16:55.590,40.51916666666666,-123.663,19.37,1.63,XQ.ME31.01.BH,P,1.0,2008-03-06 01:17:02.560000
nc51197677,2008-03-06 01:16:55.590,40.51916666666666,-123.663,19.37,1.63,NC.KPP..SH,P,1.0,2008-03-06 01:17:02.670000
nc51197677,2008-03-06 01:16:55.590,40.51916666666666,-123.663,19.37,1.63,XQ.ME30.01.BH,P,-1.0,2008-03-06 01:17:02.820000
nc51197677,2008-03-06 01:16:55.590,40.51916666666666,-123.663,19.37,1.63,NC.KHBB..HH,P,1.0,2008-03-06 01:17:03.560000
nc51197677,2008-03-06 01:16:55.590,40.51916666666666,-123.663,19.37,1.63,NC.KHMB..HH,P,-1.0,2008-03-06 01:17:03.610000
nc51197677,2008-03-06 01:16:55.590,40.51916666666666,-123.663,19.37,1.63,BK.JCC..HH,P,1.0,2008-03-06 01:17:03.792100
nc51197677,2008-03-06 01:16:55.590,40.51916666666666,-123.663,19.37,1.63,XQ.ME27.01.BH,P,1.0,2008-03-06 01:17:03.970000
nc51197677,2008-03-06 01:16:55.590,40.51916666666666,-123.663,19.37,1.63,XQ.ME08.01.BH,P,1.0,2008-03-06 01:17:04.290000
nc51197677,2008-03-06 01:16:55.590,40.51916666666666,-123.663,19.37,1.63,NC.KKP..SH,P,-1.0,2008-03-06 01:17:04.340000
nc51197677,2008-03-06 01:16:55.590,40.51916666666666,-123.663,19.37,1.63,XQ.ME38.01.BH,P,-1.0,2008-03-06 01:17:04.530000
nc51197677,2008-03-06 01:16:55.590,40.51916666666666,-123.663,19.37,1.63,XQ.ME36.01.BH,P,-1.0,2008-03-06 01:17:05.007600
nc51197677,2008-03-06 01:16:55.590,40.51916666666666,-123.663,19.37,1.63,NC.KSM..SH,P,1.0,2008-03-06 01:17:05.540000
nc51197677,2008-03-06 01:16:55.590,40.51916666666666,-123.663,19.37,1.63,NC.KBS..SH,P,-1.0,2008-03-06 01:17:07.390000
nc51197677,2008-03-06 01:16:55.590,40.51916666666666,-123.663,19.37,1.63,NC.LBP..SH,P,1.0,2008-03-06 01:17:07.690000
nc51197782,2008-03-07 16:44:17.600,39.8795,-123.19016666666668,9.19,2.29,NC.KBN..SH,P,1.0,2008-03-07 16:44:19.740000
nc51197782,2008-03-07 16:44:17.600,39.8795,-123.19016666666668,9.19,2.29,XQ.ME42.01.BH,P,-1.0,2008-03-07 16:44:21.530000
nc51197782,2008-03-07 16:44:17.600,39.8795,-123.19016666666668,9.19,2.29,NC.KIP..SH,P,1.0,2008-03-07 16:44:22.580000
nc51197782,2008-03-07 16:44:17.600,39.8795,-123.19016666666668,9.19,2.29,NC.KFP..SH,P,1.0,2008-03-07 16:44:23.760000
nc51197782,2008-03-07 16:44:17.600,39.8795,-123.19016666666668,9.19,2.29,XQ.ME43.01.BH,P,-1.0,2008-03-07 16:44:24.080000
nc51197782,2008-03-07 16:44:17.600,39.8795,-123.19016666666668,9.19,2.29,NC.KRK..SH,P,-1.0,2008-03-07 16:44:24.300000
nc51197782,2008-03-07 16:44:17.600,39.8795,-123.19016666666668,9.19,2.29,XQ.ME38.01.BH,P,-1.0,2008-03-07 16:44:24.620000
nc51197782,2008-03-07 16:44:17.600,39.8795,-123.19016666666668,9.19,2.29,XQ.ME08.01.BH,P,-1.0,2008-03-07 16:44:24.940000
nc51197782,2008-03-07 16:44:17.600,39.8795,-123.19016666666668,9.19,2.29,NC.KKP..SH,P,-1.0,2008-03-07 16:44:25.170000
nc51197782,2008-03-07 16:44:17.600,39.8795,-123.19016666666668,9.19,2.29,NC.KCPB..HH,P,1.0,2008-03-07 16:44:25.180000
nc51197782,2008-03-07 16:44:17.600,39.8795,-123.19016666666668,9.19,2.29,XQ.ME44.01.BH,P,-1.0,2008-03-07 16:44:25.420000
nc51197782,2008-03-07 16:44:17.600,39.8795,-123.19016666666668,9.19,2.29,NC.GRO..EH,P,1.0,2008-03-07 16:44:25.880000
nc51197782,2008-03-07 16:44:17.600,39.8795,-123.19016666666668,9.19,2.29,XQ.ME49.01.BH,P,1.0,2008-03-07 16:44:25.990000
nc51197782,2008-03-07 16:44:17.600,39.8795,-123.19016666666668,9.19,2.29,NC.GVV..EH,P,1.0,2008-03-07 16:44:26.020000
nc51197782,2008-03-07 16:44:17.600,39.8795,-123.19016666666668,9.19,2.29,BK.GASB..HH,P,-1.0,2008-03-07 16:44:26.250000
nc51197782,2008-03-07 16:44:17.600,39.8795,-123.19016666666668,9.19,2.29,NC.LVR..SH,P,1.0,2008-03-07 16:44:26.360000
nc51197782,2008-03-07 16:44:17.600,39.8795,-123.19016666666668,9.19,2.29,NC.GHM..EH,P,-1.0,2008-03-07 16:44:26.450000
nc51197782,2008-03-07 16:44:17.600,39.8795,-123.19016666666668,9.19,2.29,XQ.ME45.01.BH,P,-1.0,2008-03-07 16:44:26.660000
nc51197782,2008-03-07 16:44:17.600,39.8795,-123.19016666666668,9.19,2.29,NC.KPP..SH,P,-1.0,2008-03-07 16:44:27.570000
nc51197782,2008-03-07 16:44:17.600,39.8795,-123.19016666666668,9.19,2.29,NC.LBP..SH,P,-1.0,2008-03-07 16:44:27.670000
nc51197782,2008-03-07 16:44:17.600,39.8795,-123.19016666666668,9.19,2.29,XQ.ME27.01.BH,P,-1.0,2008-03-07 16:44:28.670000
nc51197782,2008-03-07 16:44:17.600,39.8795,-123.19016666666668,9.19,2.29,XQ.ME37.01.BH,P,-1.0,2008-03-07 16:44:28.790000
nc51197782,2008-03-07 16:44:17.600,39.8795,-123.19016666666668,9.19,2.29,NC.GTC..SH,P,1.0,2008-03-07 16:44:28.880000
nc51197782,2008-03-07 16:44:17.600,39.8795,-123.19016666666668,9.19,2.29,NC.LRB..SH,P,1.0,2008-03-07 16:44:29.410000
nc51197782,2008-03-07 16:44:17.600,39.8795,-123.19016666666668,9.19,2.29,XQ.ME12.01.BH,P,1.0,2008-03-07 16:44:29.950000
nc51197782,2008-03-07 16:44:17.600,39.8795,-123.19016666666668,9.19,2.29,XQ.ME35.01.BH,P,-1.0,2008-03-07 16:44:31.060000
nc51197782,2008-03-07 16:44:17.600,39.8795,-123.19016666666668,9.19,2.29,NC.GCK..EH,P,-1.0,2008-03-07 16:44:31.480000
nc51197782,2008-03-07 16:44:17.600,39.8795,-123.19016666666668,9.19,2.29,XQ.ME46.01.BH,P,-1.0,2008-03-07 16:44:31.510000
nc51197782,2008-03-07 16:44:17.600,39.8795,-123.19016666666668,9.19,2.29,NC.KCS..SH,P,-1.0,2008-03-07 16:44:31.610000
nc51197782,2008-03-07 16:44:17.600,39.8795,-123.19016666666668,9.19,2.29,NC.GTS..EH,P,1.0,2008-03-07 16:44:31.870000
nc51197782,2008-03-07 16:44:17.600,39.8795,-123.19016666666668,9.19,2.29,NC.KHBB..HH,P,-1.0,2008-03-07 16:44:32.270000
